{"type":"FeatureCollection","features":[{"type":"Feature","properties":{"name":"","basin_type":"basin","source":"OSM"},"geometry":{"type":"Point","coordinates":[120.50620653967736,23.446212749253856]}},{"type":"Feature","properties":{"name":"滯洪池","basin_type":"","source":"OSM"},"geometry":{"type":"Point","coordinates":[120.47429763611059,23.56528262184546]}},{"type":"Feature","properties":{"name":"沁心池","basin_type":"","source":"OSM"},"geometry":{"type":"Point","coordinates":[120.4831632818625,23.46716664446495]}},{"type":"Feature","properties":{"name":"生態池","basin_type":"","source":"OSM"},"geometry":{"type":"Point","coordinates":[120.54516895951971,23.609365405313454]}},{"type":"Feature","properties":{"name":"觀音水池","basin_type":"","source":"OSM"},"geometry":{"type":"Point","coordinates":[120.60544740773005,23.562032807196367]}},{"type":"Feature","properties":{"name":"","basin_type":"basin","source":"OSM"},"geometry":{"type":"Point","coordinates":[120.57689584296119,23.619157071035822]}},{"type":"Feature","properties":{"name":"","basin_type":"basin","source":"OSM"},"geometry":{"type":"Point","coordinates":[120.54336248460764,23.615972750136997]}},{"type":"Feature","properties":{"name":"","basin_type":"basin","source":"OSM"},"geometry":{"type":"Point","coordinates":[120.54346446861264,23.61716678760684]}},{"type":"Feature","properties":{"name":"","basin_type":"basin","source":"OSM"},"geometry":{"type":"Point","coordinates":[120.45741640748446,23.619194037654616]}},{"type":"Feature","properties":{"name":"天人池","basin_type":"","source":"OSM"},"geometry":{"type":"Point","coordinates":[120.4842965006267,23.467035151671773]}},{"type":"Feature","properties":{"name":"生態池","basin_type":"pond","source":"OSM"},"geometry":{"type":"Point","coordinates":[120.47185295635823,23.47471892565069]}},{"type":"Feature","properties":{"name":"","basin_type":"","source":"OSM"},"geometry":{"type":"Point","coordinates":[120.52592936009407,23.597484931445965]}},{"type":"Feature","properties":{"name":"","basin_type":"","source":"OSM"},"geometry":{"type":"Point","coordinates":[120.30587783486952,23.581036053848116]}},{"type":"Feature","properties":{"name":"","basin_type":"","source":"OSM"},"geometry":{"type":"Point","coordinates":[120.34305977904755,23.49955737295792]}},{"type":"Feature","properties":{"name":"新埤滯洪池 (下池)","basin_type":"detention","source":"OSM"},"geometry":{"type":"Point","coordinates":[120.30314198513265,23.48123925429397]}},{"type":"Feature","properties":{"name":"新埤滯洪池 (上池)","basin_type":"detention","source":"OSM"},"geometry":{"type":"Point","coordinates":[120.30350075990977,23.48282512402828]}},{"type":"Feature","properties":{"name":"","basin_type":"","source":"OSM"},"geometry":{"type":"Point","coordinates":[120.3316330236466,23.596540575969847]}},{"type":"Feature","properties":{"name":"","basin_type":"","source":"OSM"},"geometry":{"type":"Point","coordinates":[120.33496939400712,23.598408046791803]}},{"type":"Feature","properties":{"name":"","basin_type":"","source":"OSM"},"geometry":{"type":"Point","coordinates":[120.51117457482047,23.594049289887018]}},{"type":"Feature","properties":{"name":"","basin_type":"","source":"OSM"},"geometry":{"type":"Point","coordinates":[120.50658089267141,23.59331738862877]}},{"type":"Feature","properties":{"name":"","basin_type":"","source":"OSM"},"geometry":{"type":"Point","coordinates":[120.52071124027952,23.590015487260292]}},{"type":"Feature","properties":{"name":"","basin_type":"","source":"OSM"},"geometry":{"type":"Point","coordinates":[120.37310433589887,23.61154855790534]}},{"type":"Feature","properties":{"name":"陳井寮滯洪池","basin_type":"","source":"OSM"},"geometry":{"type":"Point","coordinates":[120.40842362202893,23.610064014405303]}},{"type":"Feature","properties":{"name":"","basin_type":"","source":"OSM"},"geometry":{"type":"Point","coordinates":[120.33805906524937,23.57934927580743]}},{"type":"Feature","properties":{"name":"公館滯洪池","basin_type":"","source":"OSM"},"geometry":{"type":"Point","coordinates":[120.44508581088344,23.43588134205343]}},{"type":"Feature","properties":{"name":"","basin_type":"","source":"OSM"},"geometry":{"type":"Point","coordinates":[120.35433156599767,23.606818469137526]}},{"type":"Feature","properties":{"name":"","basin_type":"","source":"OSM"},"geometry":{"type":"Point","coordinates":[120.35318289988437,23.598140788955053]}},{"type":"Feature","properties":{"name":"","basin_type":"","source":"OSM"},"geometry":{"type":"Point","coordinates":[120.41909633801998,23.52956509352541]}},{"type":"Feature","properties":{"name":"","basin_type":"","source":"OSM"},"geometry":{"type":"Point","coordinates":[120.41895289994056,23.530296426442966]}},{"type":"Feature","properties":{"name":"","basin_type":"","source":"OSM"},"geometry":{"type":"Point","coordinates":[120.41901585721784,23.529059192625823]}},{"type":"Feature","properties":{"name":"","basin_type":"","source":"OSM"},"geometry":{"type":"Point","coordinates":[120.41819414433375,23.532203330044343]}},{"type":"Feature","properties":{"name":"","basin_type":"","source":"OSM"},"geometry":{"type":"Point","coordinates":[120.43181334084481,23.526680057071037]}},{"type":"Feature","properties":{"name":"","basin_type":"","source":"OSM"},"geometry":{"type":"Point","coordinates":[120.4304417893794,23.52610580014134]}},{"type":"Feature","properties":{"name":"","basin_type":"","source":"OSM"},"geometry":{"type":"Point","coordinates":[120.43044982075817,23.52577852505911]}},{"type":"Feature","properties":{"name":"","basin_type":"","source":"OSM"},"geometry":{"type":"Point","coordinates":[120.43113826481202,23.52581861160747]}},{"type":"Feature","properties":{"name":"","basin_type":"","source":"OSM"},"geometry":{"type":"Point","coordinates":[120.56535623954105,23.453019949769114]}},{"type":"Feature","properties":{"name":"","basin_type":"","source":"OSM"},"geometry":{"type":"Point","coordinates":[120.5638631352898,23.45314406048232]}},{"type":"Feature","properties":{"name":"","basin_type":"","source":"OSM"},"geometry":{"type":"Point","coordinates":[120.56055770681841,23.4536427824391]}},{"type":"Feature","properties":{"name":"","basin_type":"","source":"OSM"},"geometry":{"type":"Point","coordinates":[120.36589376612237,23.583810520674014]}},{"type":"Feature","properties":{"name":"","basin_type":"","source":"OSM"},"geometry":{"type":"Point","coordinates":[120.30171873206143,23.48214978812423]}},{"type":"Feature","properties":{"name":"","basin_type":"","source":"OSM"},"geometry":{"type":"Point","coordinates":[120.3331855252605,23.534572478204915]}},{"type":"Feature","properties":{"name":"","basin_type":"","source":"OSM"},"geometry":{"type":"Point","coordinates":[120.33755295318718,23.558502905439063]}},{"type":"Feature","properties":{"name":"","basin_type":"","source":"OSM"},"geometry":{"type":"Point","coordinates":[120.33827803649588,23.55831051765631]}}]}