{"type":"FeatureCollection","features":[{"type":"Feature","properties":{"name":"蘭潭水庫","dam_height_m":31,"dam_type":"滾壓式土壩","purpose":"公共給水","source":"WRA 水庫堰壩位置圖"},"geometry":{"type":"Point","coordinates":[120.4784759213595,23.46690284020258]}},{"type":"Feature","properties":{"name":"仁義潭水庫","dam_height_m":28,"dam_type":"土石壩","purpose":"公共給水","source":"WRA 水庫堰壩位置圖"},"geometry":{"type":"Point","coordinates":[120.5109674051039,23.45907819192912]}},{"type":"Feature","properties":{"name":"鹿寮溪水庫","dam_height_m":30,"dam_type":"土壩","purpose":"工業用水,灌溉","source":"WRA 水庫堰壩位置圖"},"geometry":{"type":"Point","coordinates":[120.4762677799566,23.38540457832671]}},{"type":"Feature","properties":{"name":"內埔子水庫","dam_height_m":26,"dam_type":"土石壩","purpose":"灌溉","source":"WRA 水庫堰壩位置圖"},"geometry":{"type":"Point","coordinates":[120.4939875593606,23.52934506209601]}},{"type":"Feature","properties":{"name":"瑞峰水庫","dam_height_m":0,"dam_type":"","purpose":"","source":"WRA 水庫堰壩位置圖"},"geometry":{"type":"Point","coordinates":[120.6481209880609,23.56823206707473]}}]}