{"type":"FeatureCollection","features":[{"type":"Feature","properties":{"name":"蘭潭水庫","source":"WRA 水庫蓄水範圍"},"geometry":{"type":"Polygon","coordinates":[[[120.480891,23.478184],[120.480633,23.478281],[120.480535,23.478432],[120.480512,23.478703],[120.480383,23.478825],[120.480479,23.479136],[120.480439,23.479153],[120.480368,23.479144],[120.480063,23.478918],[120.479736,23.478626],[120.479575,23.478393],[120.479466,23.478082],[120.479217,23.477886],[120.47921,23.477691],[120.479038,23.477597],[120.47896,23.4773],[120.478758,23.477111],[120.478767,23.4767],[120.478595,23.476627],[120.478494,23.476482],[120.478294,23.475426],[120.478342,23.475195],[120.478318,23.474987],[120.478094,23.474066],[120.477974,23.473997],[120.477718,23.474017],[120.477288,23.473515],[120.476181,23.472011],[120.475867,23.471306],[120.476051,23.471065],[120.476201,23.470657],[120.476201,23.470147],[120.476242,23.469968],[120.476123,23.469557],[120.476131,23.469333],[120.476306,23.469032],[120.476396,23.468728],[120.477005,23.467512],[120.477496,23.466364],[120.477846,23.465453],[120.477738,23.464966],[120.477782,23.464714],[120.477893,23.464451],[120.478117,23.464312],[120.478127,23.464402],[120.477985,23.464449],[120.477897,23.46454],[120.477798,23.464927],[120.477945,23.465451],[120.478125,23.465581],[120.478287,23.465346],[120.47842,23.465496],[120.478673,23.465261],[120.47866,23.465147],[120.47847,23.46509],[120.478401,23.46515],[120.478469,23.465072],[120.478666,23.46513],[120.479216,23.464583],[120.479193,23.464701],[120.47949,23.464633],[120.479575,23.464718],[120.479805,23.464597],[120.479833,23.464901],[120.479923,23.464888],[120.479975,23.464965],[120.480079,23.464989],[120.480093,23.465149],[120.480419,23.465112],[120.480393,23.465248],[120.48065,23.465456],[120.480569,23.46556],[120.480656,23.465631],[120.480657,23.465849],[120.480787,23.46598],[120.481512,23.466283],[120.481771,23.466543],[120.481849,23.46675],[120.481715,23.467128],[120.481468,23.467167],[120.481148,23.467533],[120.480943,23.467712],[120.480764,23.467789],[120.480877,23.468175],[120.480925,23.468648],[120.481024,23.468704],[120.481298,23.468498],[120.481453,23.468457],[120.481537,23.468499],[120.481601,23.468747],[120.48184,23.469096],[120.482235,23.468616],[120.482413,23.46886],[120.482754,23.469033],[120.48262,23.46926],[120.48239,23.469489],[120.48237,23.469585],[120.482474,23.469627],[120.482816,23.470156],[120.482909,23.470477],[120.482938,23.470684],[120.4828,23.470928],[120.482807,23.471119],[120.482652,23.471482],[120.482552,23.471661],[120.482357,23.471717],[120.48222,23.471639],[120.481968,23.471321],[120.481919,23.471328],[120.481856,23.471606],[120.481775,23.471765],[120.48168,23.471828],[120.481389,23.471816],[120.481194,23.471685],[120.48112,23.4722],[120.481192,23.472281],[120.481288,23.472292],[120.481542,23.472264],[120.481742,23.472298],[120.481994,23.472229],[120.482137,23.472265],[120.482317,23.472441],[120.482386,23.472689],[120.482552,23.472864],[120.483216,23.472895],[120.483264,23.472961],[120.483253,23.473103],[120.483111,23.473316],[120.482998,23.473398],[120.482631,23.473513],[120.482371,23.473725],[120.481997,23.473605],[120.481331,23.473539],[120.481478,23.474112],[120.48137,23.474188],[120.480944,23.474286],[120.480843,23.47447],[120.481012,23.475088],[120.481288,23.47489],[120.481582,23.474865],[120.481932,23.474701],[120.482081,23.47482],[120.482159,23.474793],[120.482897,23.474349],[120.483,23.474343],[120.483174,23.474422],[120.483306,23.474357],[120.48366,23.473826],[120.483792,23.473787],[120.484055,23.47386],[120.484389,23.473878],[120.484503,23.474],[120.48494,23.474123],[120.484983,23.474219],[120.484986,23.474427],[120.484921,23.474542],[120.484835,23.474575],[120.484786,23.474757],[120.484432,23.474806],[120.484339,23.474937],[120.484572,23.475355],[120.484746,23.475424],[120.485087,23.475263],[120.485487,23.475264],[120.485679,23.475499],[120.485642,23.475668],[120.485672,23.475708],[120.486135,23.475645],[120.486659,23.47519],[120.486811,23.4752],[120.487034,23.475469],[120.487038,23.475604],[120.486999,23.475718],[120.486692,23.475996],[120.486665,23.47621],[120.486741,23.476299],[120.486889,23.476331],[120.487354,23.476092],[120.487715,23.476262],[120.487874,23.476227],[120.488097,23.475939],[120.488055,23.475637],[120.48821,23.475415],[120.488403,23.475371],[120.488672,23.475461],[120.488672,23.475616],[120.488858,23.476164],[120.489026,23.476338],[120.489315,23.476343],[120.489368,23.47621],[120.489513,23.476108],[120.489678,23.475802],[120.489698,23.475709],[120.48954,23.475357],[120.489536,23.475312],[120.489603,23.475286],[120.489723,23.47534],[120.490016,23.475616],[120.490054,23.475754],[120.490088,23.475768],[120.490166,23.475679],[120.490218,23.475737],[120.490242,23.475977],[120.489994,23.47635],[120.489945,23.47659],[120.48995,23.476657],[120.490123,23.476853],[120.490122,23.476991],[120.490233,23.477045],[120.490547,23.477073],[120.491143,23.476944],[120.491568,23.476922],[120.49191,23.476996],[120.491971,23.4771],[120.491951,23.477162],[120.491831,23.477184],[120.491595,23.47712],[120.491116,23.477226],[120.490635,23.477744],[120.490437,23.47785],[120.49022,23.477716],[120.49011,23.47772],[120.490027,23.477871],[120.489844,23.477728],[120.489695,23.47783],[120.489684,23.477981],[120.489646,23.477999],[120.489444,23.47782],[120.489328,23.477784],[120.489237,23.477811],[120.489159,23.477935],[120.489115,23.478184],[120.489062,23.47825],[120.488965,23.478259],[120.48885,23.478223],[120.488427,23.47783],[120.487969,23.477971],[120.487896,23.478069],[120.48779,23.477993],[120.487743,23.477833],[120.487613,23.477805],[120.48753,23.477845],[120.487438,23.478036],[120.487395,23.477863],[120.487338,23.477818],[120.487193,23.477849],[120.487025,23.477732],[120.486707,23.477771],[120.486615,23.477864],[120.486354,23.477908],[120.485974,23.477862],[120.485198,23.477637],[120.484751,23.477356],[120.484519,23.477604],[120.484351,23.477399],[120.484222,23.477114],[120.483894,23.477095],[120.483731,23.476974],[120.483524,23.476929],[120.483476,23.476813],[120.483181,23.476734],[120.482911,23.476738],[120.482295,23.476535],[120.482152,23.476735],[120.481828,23.476861],[120.481805,23.477004],[120.481653,23.47727],[120.481635,23.477437],[120.481541,23.477531],[120.481444,23.477543],[120.481607,23.477667],[120.481709,23.477826],[120.48169,23.477949],[120.481619,23.477982],[120.481521,23.478153],[120.481379,23.478198],[120.481082,23.478127],[120.480891,23.478184]]]}},{"type":"Feature","properties":{"name":"仁義潭水庫","source":"WRA 水庫蓄水範圍"},"geometry":{"type":"Polygon","coordinates":[[[120.513525,23.473252],[120.513469,23.473257],[120.5134,23.473178],[120.513428,23.473057],[120.513842,23.472864],[120.51391,23.472635],[120.514129,23.472583],[120.514235,23.472658],[120.514384,23.472938],[120.514828,23.473173],[120.51499,23.473196],[120.51529,23.473071],[120.515444,23.473125],[120.515527,23.473362],[120.515515,23.473514],[120.515616,23.473636],[120.515759,23.473658],[120.515881,23.473568],[120.515995,23.473092],[120.5162,23.472951],[120.516197,23.472641],[120.516399,23.472403],[120.516342,23.472221],[120.516228,23.47217],[120.515985,23.472186],[120.515697,23.472407],[120.515331,23.472414],[120.515017,23.472494],[120.514957,23.472413],[120.515081,23.472135],[120.515013,23.472014],[120.514832,23.471926],[120.514677,23.471915],[120.514421,23.471757],[120.51413,23.471686],[120.513791,23.471693],[120.513723,23.471547],[120.513969,23.470996],[120.5141,23.470932],[120.514305,23.471001],[120.514453,23.471156],[120.514908,23.471181],[120.515086,23.471332],[120.515503,23.471437],[120.515691,23.471369],[120.51594,23.471072],[120.516072,23.471019],[120.516397,23.47116],[120.516626,23.47108],[120.516847,23.471082],[120.517013,23.471107],[120.517092,23.471204],[120.517161,23.4712],[120.517246,23.470927],[120.51724,23.470608],[120.51713,23.470517],[120.51695,23.47068],[120.516797,23.470735],[120.516143,23.470636],[120.515997,23.470744],[120.515791,23.47074],[120.515519,23.470695],[120.515267,23.470545],[120.514818,23.470401],[120.5145,23.47035],[120.514413,23.470262],[120.514459,23.469919],[120.514549,23.469852],[120.51478,23.469876],[120.514993,23.469385],[120.515114,23.469386],[120.515611,23.46963],[120.515742,23.469647],[120.516074,23.469395],[120.516298,23.469364],[120.51641,23.469095],[120.516773,23.468988],[120.517035,23.468668],[120.516984,23.46835],[120.516918,23.468294],[120.516825,23.468316],[120.516705,23.468759],[120.516498,23.468984],[120.516102,23.468998],[120.515971,23.469063],[120.515531,23.468987],[120.515416,23.468898],[120.51541,23.468721],[120.515258,23.468528],[120.515293,23.468405],[120.515366,23.468337],[120.515342,23.468154],[120.515115,23.467854],[120.515163,23.46771],[120.515284,23.467598],[120.515681,23.467462],[120.515676,23.467267],[120.51564,23.467243],[120.515266,23.467349],[120.514942,23.467321],[120.514738,23.467246],[120.514614,23.467006],[120.514422,23.467038],[120.514253,23.467387],[120.514063,23.467447],[120.513977,23.467524],[120.513987,23.468101],[120.514264,23.468237],[120.514448,23.46827],[120.514511,23.468382],[120.514657,23.468468],[120.514639,23.468667],[120.51444,23.468889],[120.514225,23.468893],[120.51411,23.469048],[120.513934,23.469065],[120.51387,23.469152],[120.513852,23.469317],[120.513781,23.469363],[120.513469,23.469366],[120.513247,23.469123],[120.513176,23.469111],[120.513155,23.46916],[120.513141,23.46933],[120.513178,23.469387],[120.513528,23.469615],[120.513668,23.469812],[120.513834,23.469893],[120.513883,23.470071],[120.51384,23.470182],[120.513736,23.47026],[120.513112,23.470376],[120.512996,23.470438],[120.512998,23.470696],[120.513314,23.470767],[120.513479,23.47096],[120.513395,23.471257],[120.513164,23.471323],[120.512878,23.471591],[120.512941,23.471694],[120.513217,23.471866],[120.513328,23.472061],[120.513325,23.472149],[120.513163,23.472287],[120.51317,23.472528],[120.513028,23.472625],[120.512762,23.472604],[120.512542,23.472665],[120.512459,23.472644],[120.512367,23.472534],[120.511877,23.472419],[120.51164,23.472579],[120.511567,23.472795],[120.511455,23.472858],[120.511187,23.472772],[120.510986,23.472914],[120.510653,23.47291],[120.51037,23.472622],[120.510312,23.4724],[120.510362,23.472209],[120.510248,23.471978],[120.510421,23.471841],[120.510627,23.471779],[120.510636,23.471723],[120.510517,23.471665],[120.510425,23.471537],[120.510553,23.471355],[120.510474,23.471253],[120.510472,23.471155],[120.510689,23.471023],[120.510724,23.470692],[120.509676,23.470715],[120.509546,23.470679],[120.509533,23.470507],[120.509693,23.470271],[120.509743,23.470044],[120.50996,23.469854],[120.509634,23.469733],[120.509405,23.469752],[120.509319,23.469712],[120.509256,23.469575],[120.509262,23.469432],[120.509151,23.469302],[120.508949,23.469193],[120.508814,23.468931],[120.508848,23.468851],[120.509021,23.468762],[120.508997,23.468377],[120.508423,23.468267],[120.508361,23.468149],[120.508174,23.467995],[120.508159,23.467815],[120.50825,23.46749],[120.508238,23.467328],[120.507993,23.466896],[120.50797,23.466612],[120.507648,23.46597],[120.507204,23.465854],[120.506911,23.465936],[120.506641,23.46586],[120.50658,23.465967],[120.506753,23.466104],[120.506755,23.466357],[120.506544,23.466557],[120.506251,23.466654],[120.506023,23.466804],[120.506123,23.467082],[120.506333,23.467074],[120.506462,23.466981],[120.506682,23.466968],[120.507033,23.467209],[120.507002,23.467527],[120.50722,23.467767],[120.507212,23.467866],[120.506986,23.467914],[120.506831,23.468049],[120.507052,23.468128],[120.507183,23.468528],[120.507329,23.468648],[120.50745,23.468834],[120.507405,23.468903],[120.507483,23.469024],[120.507618,23.469088],[120.507691,23.4693],[120.507653,23.469442],[120.507826,23.469681],[120.507839,23.469865],[120.507587,23.47002],[120.507433,23.470025],[120.507279,23.469855],[120.50725,23.46971],[120.506899,23.46953],[120.506862,23.469424],[120.506623,23.469507],[120.506515,23.469468],[120.506482,23.469432],[120.506503,23.469247],[120.506565,23.469095],[120.506284,23.468931],[120.506093,23.468717],[120.505941,23.468703],[120.505817,23.46858],[120.505699,23.468591],[120.505442,23.468814],[120.505279,23.46875],[120.505311,23.468489],[120.505148,23.468344],[120.505381,23.468175],[120.505405,23.467975],[120.50532,23.467932],[120.504926,23.468002],[120.504875,23.467932],[120.504939,23.467619],[120.504823,23.467577],[120.504777,23.467448],[120.50461,23.467508],[120.504458,23.467344],[120.504628,23.467134],[120.50464,23.466864],[120.504355,23.466615],[120.504257,23.466325],[120.504356,23.466198],[120.504677,23.466267],[120.504693,23.466065],[120.504559,23.465883],[120.504156,23.465715],[120.50406,23.465606],[120.504203,23.465418],[120.50442,23.46534],[120.504481,23.465249],[120.504144,23.464949],[120.504093,23.464813],[120.504335,23.46461],[120.504106,23.464421],[120.504057,23.464145],[120.504209,23.463931],[120.504388,23.463842],[120.504284,23.463579],[120.504279,23.463305],[120.504123,23.463267],[120.503801,23.46352],[120.503747,23.463641],[120.503785,23.463814],[120.503749,23.463967],[120.503542,23.464015],[120.503472,23.46417],[120.50332,23.464273],[120.502941,23.464371],[120.502881,23.464434],[120.502888,23.46447],[120.503186,23.46455],[120.50323,23.464641],[120.503196,23.4649],[120.503026,23.464986],[120.502924,23.465098],[120.502933,23.465177],[120.503099,23.465329],[120.503075,23.465499],[120.503182,23.465765],[120.503137,23.465849],[120.502987,23.465925],[120.503004,23.466074],[120.502842,23.466177],[120.502877,23.466252],[120.50309,23.466394],[120.503074,23.466448],[120.502918,23.466512],[120.502884,23.466592],[120.50307,23.466733],[120.503131,23.466672],[120.503273,23.466774],[120.503163,23.467086],[120.502894,23.467099],[120.50276,23.467319],[120.502472,23.467333],[120.502415,23.467412],[120.502437,23.467475],[120.502495,23.467482],[120.502452,23.467532],[120.502536,23.467563],[120.502532,23.467608],[120.502222,23.467591],[120.502281,23.467343],[120.502418,23.467173],[120.502487,23.466997],[120.502005,23.466866],[120.501761,23.466703],[120.501653,23.466566],[120.501206,23.46556],[120.500483,23.465053],[120.500334,23.464896],[120.500262,23.464749],[120.500252,23.464444],[120.500278,23.464335],[120.500514,23.464178],[120.500499,23.463714],[120.500905,23.462593],[120.501027,23.462563],[120.501009,23.461851],[120.501042,23.461775],[120.501271,23.461506],[120.501456,23.461439],[120.501885,23.461396],[120.502146,23.461223],[120.501597,23.460243],[120.501518,23.459939],[120.501545,23.459683],[120.501649,23.459687],[120.501605,23.46004],[120.501639,23.460171],[120.501833,23.460368],[120.502182,23.460444],[120.502398,23.46044],[120.502633,23.460364],[120.503282,23.459803],[120.503174,23.460226],[120.503623,23.459873],[120.503735,23.459624],[120.503483,23.459174],[120.50347,23.459053],[120.503511,23.458949],[120.503641,23.458851],[120.504693,23.458663],[120.506907,23.45851],[120.50782,23.458535],[120.508876,23.458786],[120.514282,23.458603],[120.514462,23.458656],[120.516793,23.458662],[120.517098,23.458697],[120.517674,23.458871],[120.518322,23.458905],[120.518736,23.459038],[120.518736,23.459139],[120.518586,23.459225],[120.51862,23.459309],[120.51859,23.459466],[120.518633,23.459532],[120.518808,23.459512],[120.519035,23.459568],[120.519458,23.459392],[120.519781,23.459425],[120.519943,23.459531],[120.520174,23.459581],[120.520618,23.460065],[120.520645,23.46028],[120.520761,23.460499],[120.520949,23.460436],[120.521275,23.460216],[120.521523,23.460167],[120.521701,23.460055],[120.521773,23.460106],[120.521508,23.460445],[120.521076,23.46073],[120.520972,23.460916],[120.520711,23.460968],[120.520782,23.461093],[120.520727,23.461205],[120.52047,23.46096],[120.520238,23.460842],[120.520054,23.460676],[120.519876,23.460638],[120.519807,23.460668],[120.519724,23.460832],[120.51982,23.461102],[120.51967,23.461441],[120.519901,23.461674],[120.519774,23.46204],[120.519582,23.462129],[120.519346,23.462112],[120.519093,23.462276],[120.518839,23.462247],[120.518726,23.462315],[120.518758,23.462474],[120.518998,23.462562],[120.519112,23.462819],[120.519324,23.462825],[120.519608,23.462915],[120.519584,23.463059],[120.519355,23.463267],[120.519294,23.463382],[120.519405,23.463489],[120.519663,23.463544],[120.519778,23.463634],[120.519519,23.463905],[120.519512,23.464007],[120.519663,23.464407],[120.519373,23.464678],[120.519433,23.464919],[120.519368,23.465106],[120.519216,23.465148],[120.518598,23.465156],[120.518456,23.465203],[120.518351,23.465342],[120.518323,23.465465],[120.518442,23.465762],[120.518454,23.465969],[120.518253,23.466215],[120.518248,23.466395],[120.51848,23.466507],[120.518607,23.46643],[120.518658,23.465771],[120.518825,23.465691],[120.518973,23.465698],[120.519193,23.465896],[120.519334,23.465948],[120.519519,23.4661],[120.51958,23.466092],[120.519781,23.465569],[120.520309,23.465262],[120.520629,23.464971],[120.520853,23.464274],[120.520828,23.464001],[120.521214,23.463993],[120.521433,23.463819],[120.521477,23.463723],[120.521826,23.463581],[120.521892,23.463813],[120.52174,23.463916],[120.521621,23.464077],[120.521618,23.464131],[120.521723,23.46419],[120.521739,23.464261],[120.52154,23.464381],[120.521554,23.464475],[120.521383,23.464682],[120.521293,23.464971],[120.521331,23.465092],[120.521543,23.465136],[120.521567,23.465186],[120.521495,23.465311],[120.521135,23.465542],[120.521095,23.465745],[120.521229,23.465864],[120.521126,23.466122],[120.521161,23.46617],[120.521298,23.466161],[120.52181,23.465901],[120.522036,23.465865],[120.522294,23.465586],[120.522386,23.465618],[120.522451,23.46584],[120.522794,23.46596],[120.522847,23.466038],[120.522682,23.466238],[120.522287,23.466208],[120.522041,23.466283],[120.521896,23.466482],[120.52157,23.466527],[120.521255,23.466653],[120.521182,23.46673],[120.52119,23.466846],[120.521263,23.466944],[120.521404,23.466986],[120.521642,23.467172],[120.522016,23.467373],[120.52218,23.467323],[120.522321,23.467122],[120.522577,23.466972],[120.522737,23.466947],[120.522843,23.467143],[120.52257,23.467619],[120.522597,23.467866],[120.522773,23.467969],[120.523119,23.468027],[120.523425,23.467999],[120.523492,23.468092],[120.523434,23.468256],[120.523346,23.468322],[120.523338,23.468441],[120.523144,23.468498],[120.522961,23.46908],[120.522845,23.469125],[120.522731,23.46903],[120.522615,23.46863],[120.522472,23.468452],[120.5223,23.468349],[120.522032,23.468462],[120.521938,23.468423],[120.521997,23.468155],[120.521805,23.467978],[120.521716,23.467939],[120.521524,23.467979],[120.521522,23.467843],[120.521449,23.467782],[120.521129,23.467618],[120.520783,23.467616],[120.520701,23.467528],[120.520556,23.467508],[120.52046,23.467382],[120.520331,23.467366],[120.520052,23.467211],[120.519892,23.467297],[120.519653,23.467227],[120.519387,23.467463],[120.519156,23.467554],[120.519144,23.467651],[120.519248,23.467873],[120.519085,23.468159],[120.519197,23.4683],[120.519594,23.468282],[120.519746,23.468232],[120.520033,23.46828],[120.520316,23.468627],[120.520427,23.468822],[120.520435,23.468969],[120.520325,23.469148],[120.520127,23.469216],[120.519765,23.46906],[120.51932,23.469071],[120.519223,23.469606],[120.519284,23.469617],[120.519373,23.469542],[120.519485,23.469574],[120.519634,23.469707],[120.519725,23.47013],[120.519837,23.470089],[120.520019,23.469878],[120.520194,23.46981],[120.52067,23.469431],[120.520967,23.469412],[120.521267,23.46955],[120.521487,23.46948],[120.521876,23.469446],[120.521933,23.469574],[120.521701,23.469768],[120.52168,23.469995],[120.521917,23.470226],[120.522109,23.470147],[120.522193,23.470178],[120.522101,23.470544],[120.522176,23.470714],[120.522248,23.470755],[120.52253,23.470765],[120.522987,23.470672],[120.523091,23.470682],[120.523213,23.470774],[120.523212,23.470849],[120.52314,23.470917],[120.522563,23.471107],[120.522501,23.471202],[120.522569,23.471351],[120.522761,23.471389],[120.523255,23.471352],[120.523458,23.471492],[120.523492,23.471596],[120.5234,23.47166],[120.523068,23.471667],[120.522652,23.471831],[120.522444,23.471803],[120.522178,23.471847],[120.521966,23.471773],[120.521286,23.471802],[120.520202,23.471532],[120.51974,23.471261],[120.519652,23.471347],[120.519472,23.471792],[120.519529,23.471881],[120.519897,23.472047],[120.520017,23.472052],[120.520083,23.472126],[120.520168,23.472704],[120.520059,23.472869],[120.51968,23.472989],[120.519253,23.472895],[120.518822,23.47311],[120.518715,23.473239],[120.51878,23.473412],[120.518894,23.473548],[120.518888,23.473611],[120.518472,23.474026],[120.518314,23.473992],[120.518002,23.473693],[120.517862,23.473623],[120.517687,23.473718],[120.517894,23.473949],[120.517843,23.474065],[120.517712,23.474142],[120.517371,23.474174],[120.517059,23.474362],[120.516669,23.474228],[120.516546,23.474234],[120.516241,23.474407],[120.516178,23.474499],[120.516172,23.474697],[120.51594,23.474857],[120.515804,23.474894],[120.515472,23.474815],[120.515235,23.474853],[120.515249,23.474965],[120.515107,23.475314],[120.515,23.475158],[120.514771,23.475139],[120.514672,23.475174],[120.514473,23.475399],[120.514004,23.475469],[120.513974,23.475424],[120.513759,23.475405],[120.51365,23.47529],[120.513515,23.475287],[120.513476,23.475142],[120.513252,23.474907],[120.513076,23.474861],[120.512929,23.474743],[120.512927,23.47464],[120.513136,23.4746],[120.51321,23.474627],[120.513281,23.474573],[120.513243,23.474456],[120.513049,23.474301],[120.51305,23.474227],[120.513147,23.474175],[120.513287,23.474232],[120.513587,23.474555],[120.513752,23.474601],[120.513782,23.474673],[120.513949,23.474774],[120.513991,23.47488],[120.514127,23.474964],[120.514356,23.474851],[120.515048,23.47431],[120.514825,23.473958],[120.514214,23.473717],[120.514165,23.473632],[120.514218,23.473515],[120.514158,23.473432],[120.51356,23.473262],[120.513525,23.473252]]]}},{"type":"Feature","properties":{"name":"鹿寮溪水庫","source":"WRA 水庫蓄水範圍"},"geometry":{"type":"Polygon","coordinates":[[[120.477309,23.387162],[120.477105,23.38731],[120.476841,23.387246],[120.476622,23.387283],[120.476341,23.387529],[120.476126,23.387522],[120.476042,23.387429],[120.476073,23.387358],[120.476014,23.387255],[120.475602,23.387182],[120.475459,23.387239],[120.475504,23.387303],[120.475382,23.387657],[120.475411,23.387704],[120.475363,23.387816],[120.475304,23.387842],[120.475144,23.38781],[120.475105,23.387638],[120.475215,23.387442],[120.475218,23.387274],[120.474847,23.387207],[120.474803,23.387126],[120.474905,23.38707],[120.47507,23.387076],[120.475083,23.386988],[120.475047,23.386968],[120.475086,23.38688],[120.475452,23.386726],[120.475544,23.387018],[120.475613,23.387105],[120.475683,23.387076],[120.475699,23.387015],[120.47564,23.386941],[120.475546,23.38658],[120.475818,23.386535],[120.47579,23.386495],[120.475892,23.386385],[120.475609,23.386058],[120.475755,23.386062],[120.476204,23.386522],[120.476234,23.3865],[120.476193,23.386271],[120.476287,23.386213],[120.476396,23.38624],[120.476499,23.386149],[120.476582,23.386037],[120.476555,23.385977],[120.476712,23.385796],[120.476777,23.385625],[120.477115,23.385434],[120.476793,23.384869],[120.476632,23.384775],[120.476623,23.38458],[120.477052,23.384316],[120.47732,23.384359],[120.477476,23.384285],[120.478087,23.384375],[120.478863,23.384624],[120.47869,23.384852],[120.479245,23.385015],[120.47914,23.385307],[120.479252,23.385442],[120.479388,23.385435],[120.47974,23.385629],[120.479771,23.385653],[120.479699,23.385682],[120.479716,23.385709],[120.479849,23.38565],[120.480075,23.385655],[120.480172,23.385802],[120.480054,23.386015],[120.480088,23.38605],[120.480344,23.385919],[120.480846,23.385778],[120.481043,23.386091],[120.481235,23.386044],[120.48126,23.386105],[120.481197,23.386209],[120.481262,23.386207],[120.481322,23.386084],[120.481503,23.385926],[120.481758,23.385837],[120.482136,23.385824],[120.482138,23.385934],[120.482048,23.386067],[120.481491,23.386486],[120.481437,23.386649],[120.481464,23.386845],[120.48159,23.38687],[120.481783,23.386817],[120.482305,23.38644],[120.482546,23.386717],[120.482906,23.386924],[120.482961,23.386914],[120.482747,23.387071],[120.482311,23.387053],[120.482042,23.387098],[120.48197,23.387225],[120.481972,23.387368],[120.482073,23.387519],[120.482657,23.38787],[120.482869,23.387886],[120.482947,23.387939],[120.482832,23.38804],[120.482551,23.388096],[120.481994,23.388004],[120.481917,23.388207],[120.481985,23.388538],[120.482024,23.388588],[120.482648,23.388785],[120.483399,23.388929],[120.483505,23.389013],[120.483514,23.389151],[120.48374,23.389266],[120.48422,23.389222],[120.484389,23.388893],[120.484478,23.388546],[120.484591,23.388385],[120.484657,23.388654],[120.484766,23.388761],[120.48467,23.388935],[120.484694,23.388973],[120.485198,23.388698],[120.485633,23.388778],[120.485748,23.388728],[120.485822,23.38882],[120.485901,23.388835],[120.486188,23.388714],[120.486347,23.388558],[120.486348,23.388083],[120.486406,23.388132],[120.4865,23.38807],[120.486571,23.388127],[120.486415,23.388364],[120.486433,23.388445],[120.486566,23.388447],[120.48646,23.388685],[120.486579,23.388585],[120.487,23.388431],[120.486983,23.388571],[120.48702,23.388601],[120.487486,23.38823],[120.487749,23.388179],[120.487949,23.388078],[120.488123,23.388102],[120.488222,23.388034],[120.488282,23.387872],[120.488725,23.387846],[120.488964,23.387716],[120.48916,23.38771],[120.489268,23.387804],[120.489399,23.388137],[120.489341,23.38829],[120.488941,23.388548],[120.488433,23.38865],[120.488333,23.388797],[120.488332,23.38902],[120.487951,23.388896],[120.487693,23.389133],[120.48756,23.388942],[120.487468,23.388931],[120.487368,23.389074],[120.487105,23.389196],[120.486957,23.389189],[120.486871,23.389251],[120.486465,23.389214],[120.486297,23.389317],[120.485589,23.389133],[120.485466,23.389227],[120.485332,23.389185],[120.485233,23.389209],[120.484993,23.389414],[120.485,23.389482],[120.485195,23.38962],[120.48585,23.389509],[120.485966,23.389544],[120.486352,23.390198],[120.486526,23.39075],[120.486893,23.391213],[120.487015,23.391242],[120.487119,23.391187],[120.487323,23.390864],[120.48776,23.390729],[120.487876,23.390738],[120.487855,23.3908],[120.487657,23.390892],[120.487706,23.391012],[120.487653,23.391182],[120.487529,23.391338],[120.487359,23.391475],[120.487205,23.39149],[120.486984,23.391758],[120.487139,23.391891],[120.487867,23.39211],[120.488114,23.392259],[120.48845,23.392309],[120.488652,23.39225],[120.488869,23.392098],[120.489234,23.391935],[120.489693,23.391549],[120.489889,23.391297],[120.490191,23.391455],[120.490398,23.391499],[120.490415,23.391554],[120.490175,23.391881],[120.49019,23.39209],[120.490349,23.392319],[120.490508,23.392794],[120.490674,23.393105],[120.490533,23.393245],[120.490384,23.393734],[120.490122,23.393937],[120.490053,23.394084],[120.490384,23.394147],[120.490555,23.394087],[120.491,23.39414],[120.490916,23.394947],[120.490947,23.39501],[120.491833,23.395247],[120.491897,23.395283],[120.491893,23.395329],[120.491874,23.395382],[120.491584,23.395551],[120.491466,23.395818],[120.491486,23.395899],[120.491424,23.395969],[120.491241,23.395914],[120.491188,23.39579],[120.491035,23.395734],[120.490182,23.395725],[120.489907,23.395424],[120.489698,23.395065],[120.489621,23.395025],[120.489323,23.395032],[120.488836,23.395284],[120.488741,23.395685],[120.488509,23.39593],[120.488502,23.396077],[120.488726,23.396177],[120.488883,23.396334],[120.488955,23.396554],[120.488973,23.396779],[120.4889,23.397278],[120.489045,23.397605],[120.489002,23.397672],[120.488917,23.397612],[120.48884,23.39735],[120.488878,23.396734],[120.48876,23.396398],[120.488699,23.396331],[120.488438,23.396237],[120.488247,23.396256],[120.488113,23.39639],[120.487936,23.396422],[120.487802,23.396329],[120.487697,23.396162],[120.487746,23.396023],[120.487885,23.395893],[120.488086,23.395843],[120.488185,23.395905],[120.488325,23.395924],[120.488402,23.395886],[120.488534,23.395491],[120.488516,23.395194],[120.488432,23.395066],[120.488684,23.395018],[120.488878,23.394735],[120.488831,23.394575],[120.488687,23.394422],[120.488597,23.394112],[120.488562,23.393846],[120.488642,23.393284],[120.488589,23.39309],[120.488492,23.39305],[120.487897,23.393122],[120.487455,23.392966],[120.487332,23.392982],[120.486905,23.393296],[120.486451,23.393528],[120.486217,23.393439],[120.485907,23.393436],[120.485749,23.393354],[120.485567,23.393382],[120.48539,23.393685],[120.485097,23.39376],[120.485095,23.39396],[120.48534,23.394058],[120.485433,23.394285],[120.485404,23.394337],[120.485148,23.394438],[120.48518,23.394598],[120.485146,23.394777],[120.485247,23.394935],[120.485225,23.395177],[120.485056,23.395222],[120.485071,23.395044],[120.484944,23.394757],[120.484991,23.394523],[120.484894,23.394371],[120.484925,23.394195],[120.484777,23.394096],[120.484662,23.393941],[120.48443,23.393852],[120.484409,23.393735],[120.484477,23.393622],[120.485015,23.393417],[120.484995,23.393311],[120.484641,23.393245],[120.48451,23.393132],[120.484818,23.393139],[120.485024,23.39304],[120.485031,23.392933],[120.48492,23.392812],[120.48492,23.392754],[120.484954,23.392598],[120.485103,23.39244],[120.485104,23.392368],[120.484742,23.392114],[120.484723,23.392056],[120.485113,23.391703],[120.485317,23.39115],[120.48526,23.39093],[120.48499,23.390588],[120.484755,23.390377],[120.48462,23.390378],[120.484668,23.390562],[120.48493,23.390611],[120.485174,23.390951],[120.48522,23.391174],[120.485034,23.391394],[120.484951,23.391629],[120.484548,23.391909],[120.48439,23.391892],[120.484315,23.392032],[120.483969,23.392205],[120.483783,23.39236],[120.483934,23.392661],[120.483855,23.392766],[120.483755,23.392797],[120.483739,23.392929],[120.483693,23.392804],[120.483561,23.392793],[120.483532,23.392709],[120.483579,23.392572],[120.483513,23.392514],[120.483387,23.392502],[120.483187,23.392588],[120.482803,23.392565],[120.48246,23.392447],[120.482355,23.392236],[120.482333,23.392143],[120.482397,23.39207],[120.482369,23.391956],[120.482436,23.391795],[120.482826,23.391448],[120.4829,23.391447],[120.482977,23.391377],[120.482995,23.391115],[120.483105,23.390833],[120.483109,23.390691],[120.483058,23.390586],[120.482941,23.39052],[120.482566,23.390476],[120.481906,23.39062],[120.481701,23.390813],[120.481697,23.390881],[120.481999,23.391428],[120.481999,23.391658],[120.481923,23.391902],[120.481714,23.392093],[120.481849,23.392328],[120.481877,23.392486],[120.481617,23.392811],[120.481519,23.392814],[120.481543,23.392938],[120.481666,23.393044],[120.481686,23.39312],[120.481411,23.393213],[120.481231,23.393347],[120.481077,23.39355],[120.481157,23.393614],[120.481171,23.393833],[120.481242,23.393892],[120.4812,23.39393],[120.481219,23.394096],[120.481436,23.394205],[120.481561,23.394174],[120.481615,23.394295],[120.481776,23.39431],[120.481801,23.394531],[120.481668,23.394614],[120.481763,23.394702],[120.481845,23.394991],[120.481808,23.395078],[120.481523,23.395058],[120.481352,23.394925],[120.481335,23.394857],[120.481506,23.39474],[120.481436,23.394437],[120.481222,23.394401],[120.481089,23.394428],[120.480973,23.394384],[120.480807,23.394154],[120.480557,23.393967],[120.480426,23.394127],[120.480422,23.394066],[120.480298,23.39397],[120.480317,23.393857],[120.480011,23.393522],[120.48015,23.393318],[120.480546,23.393152],[120.480549,23.393039],[120.480416,23.39292],[120.480381,23.392785],[120.480432,23.392546],[120.480551,23.39246],[120.480989,23.392419],[120.481195,23.392226],[120.481268,23.392071],[120.4813,23.391886],[120.481194,23.39172],[120.481016,23.391055],[120.480938,23.390995],[120.480703,23.390978],[120.480628,23.390903],[120.48068,23.390815],[120.480916,23.390813],[120.481014,23.390767],[120.481078,23.390619],[120.48127,23.39041],[120.481346,23.390243],[120.481306,23.390132],[120.481214,23.390078],[120.480976,23.390037],[120.4804,23.390089],[120.480203,23.389967],[120.479966,23.389934],[120.47998,23.389756],[120.479898,23.389664],[120.479901,23.389921],[120.479962,23.390081],[120.479711,23.390096],[120.47958,23.390229],[120.479655,23.390553],[120.479625,23.390732],[120.479297,23.391069],[120.479288,23.391226],[120.47949,23.391482],[120.479472,23.391694],[120.479336,23.391899],[120.479199,23.391918],[120.478608,23.392454],[120.478474,23.392749],[120.47824,23.393021],[120.478389,23.393092],[120.478355,23.393197],[120.478253,23.393222],[120.478194,23.393329],[120.477798,23.393499],[120.477949,23.393324],[120.477879,23.393234],[120.477909,23.393132],[120.4781,23.393037],[120.478251,23.392772],[120.478008,23.392649],[120.478059,23.392484],[120.478031,23.392387],[120.478111,23.392197],[120.478003,23.392095],[120.477958,23.391868],[120.477987,23.391802],[120.478119,23.391807],[120.47816,23.391726],[120.478411,23.391628],[120.478574,23.391497],[120.478599,23.391159],[120.478722,23.391035],[120.478628,23.39072],[120.478682,23.390552],[120.478604,23.390489],[120.478512,23.390532],[120.47847,23.390487],[120.47851,23.390389],[120.47848,23.390149],[120.47839,23.390076],[120.4785,23.389707],[120.478599,23.389645],[120.478668,23.389303],[120.478885,23.388986],[120.478659,23.388898],[120.478449,23.388634],[120.478353,23.388726],[120.478395,23.38913],[120.478029,23.389476],[120.477849,23.389586],[120.477874,23.389654],[120.47773,23.389691],[120.477672,23.389681],[120.477737,23.389488],[120.477695,23.389398],[120.477768,23.389371],[120.477806,23.389204],[120.477689,23.388909],[120.47761,23.38885],[120.477312,23.388831],[120.477201,23.388876],[120.476715,23.388793],[120.476827,23.388675],[120.476922,23.388663],[120.47693,23.388717],[120.476972,23.388679],[120.477079,23.388703],[120.477528,23.388525],[120.477604,23.388474],[120.477728,23.388225],[120.477827,23.388205],[120.477894,23.38808],[120.477921,23.387774],[120.477802,23.387571],[120.477712,23.387498],[120.477548,23.387476],[120.477316,23.387161],[120.477309,23.387162]]]}},{"type":"Feature","properties":{"name":"內埔子水庫","source":"WRA 水庫蓄水範圍"},"geometry":{"type":"Polygon","coordinates":[[[120.492805,23.530436],[120.49273,23.530383],[120.492882,23.530198],[120.492947,23.530015],[120.493242,23.528941],[120.493338,23.529082],[120.493035,23.530099],[120.493737,23.529971],[120.493938,23.529852],[120.494336,23.530148],[120.494345,23.530264],[120.494652,23.53027],[120.494719,23.53062],[120.49465,23.530873],[120.494762,23.531152],[120.494904,23.531176],[120.495592,23.531079],[120.495937,23.531169],[120.49597,23.531313],[120.495877,23.531617],[120.495891,23.532011],[120.495793,23.53219],[120.495284,23.532279],[120.49495,23.532497],[120.494924,23.532601],[120.495233,23.532939],[120.495469,23.533007],[120.496034,23.532909],[120.496476,23.53294],[120.496624,23.533049],[120.496651,23.533217],[120.496437,23.533794],[120.496069,23.534425],[120.495797,23.534733],[120.496008,23.534767],[120.496318,23.534669],[120.496385,23.534825],[120.496032,23.534936],[120.495792,23.53507],[120.49548,23.535004],[120.495482,23.53511],[120.495778,23.535197],[120.496001,23.53543],[120.496401,23.535627],[120.496519,23.535758],[120.497045,23.535993],[120.497137,23.536108],[120.497342,23.536225],[120.497379,23.536314],[120.497538,23.536345],[120.497533,23.536465],[120.497426,23.536673],[120.497435,23.537023],[120.497217,23.537064],[120.497166,23.537027],[120.497029,23.537151],[120.497059,23.537183],[120.497018,23.537214],[120.497072,23.537267],[120.497221,23.537194],[120.497399,23.5373],[120.497523,23.537262],[120.497651,23.537326],[120.4978,23.537326],[120.497888,23.537254],[120.498027,23.537289],[120.498077,23.537375],[120.498036,23.537478],[120.497968,23.537468],[120.49769,23.537592],[120.497535,23.537921],[120.497156,23.537934],[120.497041,23.537887],[120.497109,23.53762],[120.497065,23.537565],[120.497144,23.537376],[120.496808,23.537249],[120.496788,23.536886],[120.496638,23.536833],[120.496417,23.536611],[120.495823,23.53634],[120.495251,23.536205],[120.494775,23.536179],[120.494528,23.535772],[120.494429,23.534782],[120.494146,23.534477],[120.494009,23.534503],[120.494088,23.535836],[120.494002,23.536238],[120.493188,23.536284],[120.492809,23.536178],[120.492757,23.536129],[120.492769,23.535838],[120.492898,23.535211],[120.492857,23.535184],[120.492341,23.535505],[120.492051,23.535504],[120.491913,23.535444],[120.491711,23.53521],[120.491666,23.534815],[120.491781,23.534508],[120.492175,23.534118],[120.492816,23.53375],[120.493672,23.53293],[120.493749,23.532249],[120.49362,23.531923],[120.493271,23.532001],[120.493148,23.531955],[120.493134,23.531839],[120.493028,23.531778],[120.49273,23.532028],[120.492604,23.531867],[120.492705,23.530594],[120.492749,23.530449],[120.492809,23.530439],[120.492805,23.530436]]]}}]}