{"type":"FeatureCollection","features":[{"type":"Feature","properties":{"station_name":"嘉義","station_id":"467480","station_type":"署屬有人站","address":"西區北新里海口寮路56號","city":"嘉義市","altitude":26.9,"is_active":true,"source":"CWA CODiS"},"geometry":{"type":"Point","coordinates":[120.432906,23.495925]}},{"type":"Feature","properties":{"station_name":"嘉義大學","station_id":"C2M910","station_type":"農業站","address":"東區學府路300號","city":"嘉義市","altitude":68,"is_active":true,"source":"CWA CODiS"},"geometry":{"type":"Point","coordinates":[120.485903,23.471325]}},{"type":"Feature","properties":{"station_name":"碧湖","station_id":"C2M970","station_type":"農業站","address":"梅山鄉碧湖村","city":"嘉義縣","altitude":1019,"is_active":true,"source":"CWA CODiS"},"geometry":{"type":"Point","coordinates":[120.624165,23.568632]}},{"type":"Feature","properties":{"station_name":"安和","station_id":"C2M980","station_type":"農業站","address":"新港鄉安和村","city":"嘉義縣","altitude":42,"is_active":true,"source":"CWA CODiS"},"geometry":{"type":"Point","coordinates":[120.31593,23.51377]}},{"type":"Feature","properties":{"station_name":"大巃頂","station_id":"C2M990","station_type":"農業站","address":"梅山鄉太平村","city":"嘉義縣","altitude":1018,"is_active":true,"source":"CWA CODiS"},"geometry":{"type":"Point","coordinates":[120.61439,23.5547]}},{"type":"Feature","properties":{"station_name":"紫雲","station_id":"C2M9C0","station_type":"農業站","address":"竹崎鄉紫雲村","city":"嘉義縣","altitude":104,"is_active":true,"source":"CWA CODiS"},"geometry":{"type":"Point","coordinates":[120.540253,23.494914]}},{"type":"Feature","properties":{"station_name":"何竹子腳","station_id":"C2M9D0","station_type":"農業站","address":"民雄鄉西昌村","city":"嘉義縣","altitude":20,"is_active":true,"source":"CWA CODiS"},"geometry":{"type":"Point","coordinates":[120.38203,23.53641]}},{"type":"Feature","properties":{"station_name":"陳厝寮","station_id":"C2M9E0","station_type":"農業站","address":"民雄鄉三興村","city":"嘉義縣","altitude":125,"is_active":true,"source":"CWA CODiS"},"geometry":{"type":"Point","coordinates":[120.486463,23.555153]}},{"type":"Feature","properties":{"station_name":"沄水","station_id":"C2M9G0","station_type":"農業站","address":"沄水村","city":"嘉義縣","altitude":178,"is_active":true,"source":"CWA CODiS"},"geometry":{"type":"Point","coordinates":[120.52666,23.38293]}},{"type":"Feature","properties":{"station_name":"農試嘉義分所","station_id":"G2L020","station_type":"農業站","address":"民權路2號","city":"嘉義市","altitude":79,"is_active":true,"source":"CWA CODiS"},"geometry":{"type":"Point","coordinates":[120.473806,23.485028]}},{"type":"Feature","properties":{"station_name":"農試溪口農場","station_id":"G2M350","station_type":"農業站","address":"溪口鄉妙崙村下崙路1之20號(靠近柳溝國小)","city":"嘉義縣","altitude":26,"is_active":true,"source":"CWA CODiS"},"geometry":{"type":"Point","coordinates":[120.408111,23.58565]}},{"type":"Feature","properties":{"station_name":"中埔","station_id":"C0M640","station_type":"auto","address":"中埔鄉中埔村128號(中埔鄉公所)","city":"嘉義縣","altitude":155,"is_active":true,"source":"CWA CODiS"},"geometry":{"type":"Point","coordinates":[120.5229,23.42538]}},{"type":"Feature","properties":{"station_name":"溪口","station_id":"C0M660","station_type":"auto","address":"溪口鄉中正東路103號(溪口國中學生活動中心)","city":"嘉義縣","altitude":40,"is_active":true,"source":"CWA CODiS"},"geometry":{"type":"Point","coordinates":[120.403569,23.604131]}},{"type":"Feature","properties":{"station_name":"大林","station_id":"C0M670","station_type":"auto","address":"大林鎮新興街110號(大林地政事務所)","city":"嘉義縣","altitude":43,"is_active":true,"source":"CWA CODiS"},"geometry":{"type":"Point","coordinates":[120.45841,23.600616]}},{"type":"Feature","properties":{"station_name":"太保","station_id":"C0M680","station_type":"auto","address":"太保市太保里31號(太保市圖書館)","city":"嘉義縣","altitude":37,"is_active":true,"source":"CWA CODiS"},"geometry":{"type":"Point","coordinates":[120.331455,23.455062]}},{"type":"Feature","properties":{"station_name":"水上","station_id":"C0M690","station_type":"auto","address":"水上鄉三鎮村三鎮路119號(水上消防分隊)","city":"嘉義縣","altitude":33,"is_active":true,"source":"CWA CODiS"},"geometry":{"type":"Point","coordinates":[120.388909,23.419734]}},{"type":"Feature","properties":{"station_name":"竹崎","station_id":"C0M700","station_type":"auto","address":"竹崎鄉竹崎村舊車站79號(竹崎消防分隊)","city":"嘉義縣","altitude":150,"is_active":true,"source":"CWA CODiS"},"geometry":{"type":"Point","coordinates":[120.555508,23.526178]}},{"type":"Feature","properties":{"station_name":"番路","station_id":"C0M720","station_type":"auto","address":"番路鄉下坑村蔡公店101號(番路鄉公所)","city":"嘉義縣","altitude":225,"is_active":true,"source":"CWA CODiS"},"geometry":{"type":"Point","coordinates":[120.554156,23.464657]}},{"type":"Feature","properties":{"station_name":"嘉義市東區","station_id":"C0M730","station_type":"auto","address":"親水路123 號(第五河川局水情中心)","city":"嘉義市","altitude":40,"is_active":true,"source":"CWA CODiS"},"geometry":{"type":"Point","coordinates":[120.460531,23.457673]}},{"type":"Feature","properties":{"station_name":"民雄","station_id":"C0M760","station_type":"auto","address":"民雄鄉文化路7號(民雄鄉公所)","city":"嘉義縣","altitude":40,"is_active":true,"source":"CWA CODiS"},"geometry":{"type":"Point","coordinates":[120.428457,23.551754]}},{"type":"Feature","properties":{"station_name":"嘉義梅山","station_id":"C0M770","station_type":"auto","address":"梅山鄉中山路282號(梅山鄉公所)","city":"嘉義縣","altitude":164,"is_active":true,"source":"CWA CODiS"},"geometry":{"type":"Point","coordinates":[120.555587,23.585398]}},{"type":"Feature","properties":{"station_name":"鹿草","station_id":"C0M780","station_type":"auto","address":"鹿草鄉西井村287號(鹿草鄉公所)","city":"嘉義縣","altitude":30,"is_active":true,"source":"CWA CODiS"},"geometry":{"type":"Point","coordinates":[120.30835,23.41134]}},{"type":"Feature","properties":{"station_name":"新港","station_id":"C0M790","station_type":"auto","address":"新港鄉公園路28號(新港消防分隊)","city":"嘉義縣","altitude":15,"is_active":true,"source":"CWA CODiS"},"geometry":{"type":"Point","coordinates":[120.345728,23.553269]}},{"type":"Feature","properties":{"station_name":"交力坪","station_id":"C0M9J0","station_type":"auto","address":"竹崎鄉仁壽村2鄰交力坪30號","city":"嘉義縣","altitude":1001,"is_active":true,"source":"CWA CODiS"},"geometry":{"type":"Point","coordinates":[120.64356,23.53168]}},{"type":"Feature","properties":{"station_name":"鹿寮","station_id":"C0X300","station_type":"auto","address":"白河區崎內里12號(鹿寮水庫)","city":"臺南市","altitude":70,"is_active":true,"source":"CWA CODiS"},"geometry":{"type":"Point","coordinates":[120.477331,23.386047]}},{"type":"Feature","properties":{"station_name":"獨立山","station_id":"C1M480","station_type":"auto","address":"竹崎鄉(獨立山三角點旁)","city":"嘉義縣","altitude":840,"is_active":true,"source":"CWA CODiS"},"geometry":{"type":"Point","coordinates":[120.607797,23.537022]}},{"type":"Feature","properties":{"station_name":"頭凍","station_id":"C1M600","station_type":"auto","address":"番路鄉阿里山公路23k處轉入興社產業道路盡頭","city":"嘉義縣","altitude":986,"is_active":true,"source":"CWA CODiS"},"geometry":{"type":"Point","coordinates":[120.603339,23.406364]}},{"type":"Feature","properties":{"station_name":"國三N285K","station_id":"C1M870","station_type":"auto","address":"國道3號北向285K","city":"嘉義縣","altitude":121,"is_active":true,"source":"CWA CODiS"},"geometry":{"type":"Point","coordinates":[120.505833,23.550319]}}]}