{"type":"FeatureCollection","features":[{"type":"Feature","properties":{"name":"北港二號堤防","levee_type":"河堤","river":"北港溪","basin":"北港溪","county":"雲林縣","side":"右","status":"","source":"WRA 中央管河川河堤"},"geometry":{"type":"LineString","coordinates":[[120.3014695683069,23.56444807632138],[120.2993257800563,23.56499893561542],[120.2991249981151,23.56505788900567],[120.2989789883549,23.56512512770349],[120.2986139601859,23.56535223776581],[120.2984497277724,23.56544468781091],[120.2983036820009,23.56550362441237],[120.2980847376769,23.56556243396705],[120.2977288594657,23.56563815793897],[120.2967433445322,23.56578950785258],[120.2953654502643,23.56603334592412],[120.2942887008752,23.56615681240867],[120.2938781499593,23.56620728777833],[120.2935131446289,23.56624084450066],[120.2914691728799,23.56640896529236],[120.290228229373,23.56651822219838],[120.2893065702623,23.56656868112764],[120.2884488223744,23.566652700963],[120.2874542226805,23.56675353432433]]}},{"type":"Feature","properties":{"name":"北港一號堤防","levee_type":"河堤","river":"北港溪","basin":"北港溪","county":"雲林縣","side":"右","status":"","source":"WRA 中央管河川河堤"},"geometry":{"type":"LineString","coordinates":[[120.3052859843329,23.56390611378797],[120.305945658098,23.56403643315035],[120.3068173432545,23.56440571820664],[120.3071705803342,23.56501382892619],[120.3071706126594,23.56588243464311],[120.307027399401,23.56684348987494],[120.3069543768521,23.56707048306872],[120.3068995656268,23.56723030521018],[120.3068266210443,23.56745747987465],[120.3067901124016,23.56765092500534],[120.3067627275159,23.56784430726991],[120.3067353745071,23.56804626230137],[120.3066989568375,23.56828175826677],[120.3066715771086,23.56863503760362]]}},{"type":"Feature","properties":{"name":"板頭厝堤防","levee_type":"河堤","river":"北港溪","basin":"北港溪","county":"雲林縣","side":"左","status":"","source":"WRA 中央管河川河堤"},"geometry":{"type":"LineString","coordinates":[[120.3413551421048,23.57592090562689],[120.3411541214655,23.57591407421457],[120.3408712646228,23.57587298192215],[120.3406330811444,23.57582497585398],[120.3404022811776,23.57574259536702],[120.3398663064485,23.57550938078935],[120.3389060909543,23.57507028958017],[120.3376851731834,23.57450782037854],[120.3365469003509,23.57392471502261],[120.3348503866634,23.57316940911073],[120.3340378590613,23.57279149579862],[120.3331611959854,23.57237352249352],[120.3323198490289,23.57202221929734],[120.3319962317719,23.57186970121073],[120.3319171480352,23.5718299709594],[120.3318236108263,23.57176370587606],[120.3317660845314,23.57172389263932],[120.3316366971514,23.57160455863903],[120.3311692441311,23.5711405017181],[120.33090318059,23.57088197884267],[120.3306443043616,23.57064998749267],[120.3305005249554,23.57051070699456],[120.3303926506304,23.5703782058044],[120.3303296438789,23.5703004236596],[120.3302750255086,23.57023917231734],[120.3302299409035,23.570204121615],[120.3300762274182,23.57011307884284],[120.3293714181014,23.56970199982744],[120.3285012982487,23.56922472107059],[120.3275808442866,23.56876059411147],[120.3272787424399,23.56862143623701],[120.3272324132778,23.56859927264579],[120.3271924747132,23.56858161298645],[120.3271509521037,23.56857259552247],[120.3271133944282,23.56856832142626],[120.3270271084531,23.56856170463831],[120.3269192460872,23.56856175782493]]}},{"type":"Feature","properties":{"name":"崙子寮堤防","levee_type":"河堤","river":"北港溪","basin":"北港溪","county":"雲林縣","side":"右","status":"","source":"WRA 中央管河川河堤"},"geometry":{"type":"LineString","coordinates":[[120.3576302142827,23.59812619091475],[120.3557339524553,23.59729845801779],[120.3535207680742,23.5966329505011],[120.3530546596357,23.59646389257098],[120.3526183689737,23.59634517051041],[120.352251378271,23.59626290158868],[120.3518943433335,23.59618978622825],[120.351458007539,23.59611672756686],[120.3511208621289,23.59605271435449],[120.3507141646818,23.59597958947767],[120.3504265668026,23.59593390542417],[120.3501885749322,23.59589734618739],[120.3498216763486,23.59585171901367],[120.3495340213939,23.59581514906216],[120.3492960517112,23.59578779498291],[120.3484530897074,23.59573293897499],[120.347739048949,23.5956872619686],[120.3462019751775,23.59560514951562],[120.3445954212846,23.59554126991574],[120.3432665167768,23.59544484049211],[120.3409062958577,23.59533542967488],[120.3398352072615,23.59529886991295],[120.3332559025331,23.59493884988507]]}},{"type":"Feature","properties":{"name":"崙子堤防","levee_type":"河堤","river":"北港溪","basin":"北港溪","county":"雲林縣","side":"左","status":"","source":"WRA 中央管河川河堤"},"geometry":{"type":"LineString","coordinates":[[120.360577510502,23.59501119683703],[120.3602927361727,23.59487513419486],[120.3599446318751,23.59472435680754],[120.3596492333419,23.59461261322901],[120.3592641892173,23.59443753499725],[120.3589265890972,23.59429167635496],[120.3586575834303,23.59417016631844],[120.3581247408359,23.59392712228415],[120.3573908348632,23.59363004260754],[120.3569793279872,23.59347474684229],[120.3564686112883,23.59330111532852],[120.3561264149143,23.59318687341851],[120.3557941961081,23.59309098962912],[120.355516543775,23.59301791971737],[120.3547429541376,23.59283512285121],[120.3542967239383,23.5927438152768],[120.3528041255968,23.59239656518563],[120.3523678319426,23.59230520588529],[120.3519761135679,23.59221388124153],[120.3513164141595,23.59204940363943],[120.3509048709546,23.59196260840447],[120.3502701661698,23.59182104712704],[120.3489959147007,23.59153777322503],[120.3484108355335,23.59141444920149],[120.3476175448474,23.59124087726219],[120.346695302632,23.5910353221075],[120.3459962688215,23.59087082000779],[120.34526244471,23.59071092300292],[120.3442211856222,23.59047333590879],[120.343804729463,23.590391169877],[120.3433237724927,23.59023983179056],[120.3429122021141,23.59013932417663],[120.3415685538145,23.58980129449191],[120.3411371909212,23.58966416663073],[120.3406959065554,23.58953169328962],[120.3397985625553,23.58920275945343],[120.3387820848896,23.58886010712989],[120.3371607381889,23.58829364160457],[120.3363475623116,23.58801028740231],[120.335931120944,23.58786875415628],[120.3356138134168,23.58774997487269],[120.3353808158267,23.58766774489683],[120.335008947332,23.58749412129807],[120.3346718097749,23.58732509708657],[120.3342899519588,23.58709657310315]]}},{"type":"Feature","properties":{"name":"柴林腳堤防","levee_type":"河堤","river":"北港溪","basin":"北港溪","county":"雲林縣","side":"左","status":"","source":"WRA 中央管河川河堤"},"geometry":{"type":"LineString","coordinates":[[120.3735142521814,23.60883576566295],[120.3730086599584,23.60884227099744],[120.3725171391037,23.60877607310094],[120.3719474955524,23.60870377542691],[120.3716981752338,23.60865125315952],[120.3715343630659,23.60860525722843],[120.3711640865675,23.6084608100862],[120.3709432256708,23.60834249503271],[120.3706726656296,23.60817840493577],[120.3704732440752,23.60804701268699],[120.370174105381,23.60782379630238],[120.3699675667832,23.60763996405983],[120.3697824732355,23.60746922918058],[120.3696542788223,23.60731159796181],[120.3695616223754,23.60718033257986],[120.369447755749,23.60698335433905],[120.3693338472581,23.60677319900946],[120.3690987741916,23.60632021589781],[120.3688067799141,23.60583437524894],[120.3687071495029,23.60565717918822],[120.3685575607702,23.6054404524542],[120.3685077960938,23.60536174344355],[120.3684579422752,23.60523041586579],[120.3683581571701,23.60488247100438],[120.3682086362329,23.60439011443889],[120.3679380903826,23.60354981027423],[120.367767220645,23.60301150203544],[120.3676746013469,23.60275543264033],[120.3674894520706,23.60229591345279],[120.3671548192134,23.60152779030689],[120.3669560243738,23.60105518276788],[120.3667495252768,23.6006941509703],[120.3665359025748,23.60033961693972],[120.3663650372219,23.60008364267262],[120.366129964409,23.59977504093865],[120.3657882313887,23.59934846980314],[120.3654107983345,23.59886928063631],[120.3648411550083,23.598173381493],[120.3645069899502,23.59781776138593],[120.363541714983,23.59682620669804],[120.3631725626452,23.59646644402514],[120.3628613821579,23.59617801524657],[120.3627400227012,23.59607591722632],[120.3626028786568,23.59600294475887],[120.3623972043524,23.59589605858062],[120.3619753135876,23.59570651611291],[120.3616799095034,23.59558980858203],[120.3613897699107,23.59548273489592],[120.3612474248492,23.5954438978478],[120.3611524375084,23.59542931586636],[120.3610468997761,23.59543418061267],[120.3608201791968,23.59545850815372]]}},{"type":"Feature","properties":{"name":"鹿寮堤防","levee_type":"河堤","river":"北港溪","basin":"北港溪","county":"雲林縣","side":"右","status":"","source":"WRA 中央管河川河堤"},"geometry":{"type":"LineString","coordinates":[[120.3841570408539,23.64817635497136],[120.3837002182469,23.64673884506832],[120.3835195843959,23.64608174452018],[120.3832967871886,23.64547602890851],[120.3831630851655,23.64515767478065],[120.3826759306192,23.64404408883048],[120.3818721855334,23.64223187833986],[120.3812652524327,23.64107366290136],[120.3808035032081,23.64025435691606],[120.3800682859645,23.63893061711652],[120.379341551238,23.63767006197512],[120.3790506207179,23.63708708620876],[120.3783923592154,23.63581875058132],[120.3778709451903,23.63485765595794],[120.3774862026383,23.63410929347713],[120.376751097556,23.63263619113148],[120.3762809245259,23.63172250463238],[120.3758192866468,23.63089536938859],[120.3753406302225,23.62995018505615],[120.375024304847,23.62935149932325],[120.3746396236359,23.62862687823881],[120.3740329701619,23.62742178440499],[120.3737167089085,23.62681538989237],[120.3728534078803,23.62515347795872],[120.3723576311738,23.62409753783975],[120.3718976210994,23.62314063502891],[120.3714965028089,23.62238937629435],[120.371237667934,23.62189456782255],[120.3704677584546,23.62042779374035],[120.3700601787161,23.61967641052607],[120.3691846729645,23.61789335376301],[120.3685766482531,23.61676020141865],[120.3678973568249,23.61545411103619],[120.3673797996886,23.614505851689],[120.3666292702518,23.61314596518943],[120.3664869372247,23.61287166073704],[120.3662799407584,23.61243624466822],[120.3659435437143,23.61172057203587],[120.365697726302,23.61117195516654],[120.3653677986963,23.61040270097858],[120.3651459516237,23.60982418914297],[120.365049042209,23.60957969785024],[120.3649196060582,23.60927548871244],[120.3647902399684,23.60892949558371],[120.364660892049,23.60857168150967],[120.3643179987335,23.60764125163594],[120.3635805998842,23.60568508902063],[120.3630888916003,23.6043432289679],[120.3629595443667,23.60399257537814],[120.3628107311968,23.60358696855911],[120.3627137199757,23.60335440687769],[120.3626360535531,23.60319339178031],[120.3625325938262,23.60300253192976],[120.3622802827366,23.6025254659289],[120.3621379144105,23.60227499176122],[120.3618597706758,23.60179190933733],[120.3615815487249,23.60135647864447],[120.3613729706192,23.60101064608525],[120.3611659309289,23.6007601659555],[120.360868424204,23.60042621681718],[120.3607455038544,23.60028899524216],[120.3605255030298,23.6000624436902],[120.3598979704903,23.59947796478386],[120.3591734315605,23.59885776504921],[120.3589600358702,23.59869077098072],[120.3588306466651,23.59860725169021],[120.3586882350029,23.59853574670527],[120.3584488704727,23.59844620484667],[120.3581583176095,23.59834544305696],[120.3580912354794,23.59831732330888],[120.3579724757806,23.59825704176272],[120.3577562323803,23.59814460475437]]}},{"type":"Feature","properties":{"name":"溪口堤防（下）","levee_type":"河堤","river":"三疊溪","basin":"北港溪","county":"嘉義縣","side":"左","status":"","source":"WRA 中央管河川河堤"},"geometry":{"type":"LineString","coordinates":[[120.3880454855113,23.61130279729388],[120.3877264282565,23.61112419959837],[120.3872761686963,23.61090530277523],[120.386963363933,23.610761349192],[120.3865568370551,23.61057704172977],[120.3861877392976,23.61043307737668],[120.3859188263176,23.61032943440393],[120.3856856975196,23.61023158224779],[120.3853854586739,23.61013369445218],[120.3850664843481,23.61003574811379],[120.3847224791297,23.60993215753504],[120.3843222725877,23.60982271257253],[120.383903167861,23.60971329411401]]}},{"type":"Feature","properties":{"name":"溪口堤防","levee_type":"河堤","river":"三疊溪","basin":"北港溪","county":"雲林縣","side":"左","status":"","source":"WRA 中央管河川河堤"},"geometry":{"type":"LineString","coordinates":[[120.3838370305351,23.60971824496376],[120.3835844560625,23.60964602122914],[120.3831576811588,23.6095418193801],[120.3827571118641,23.60946168362146],[120.3822104343749,23.60929435978791],[120.3816050756845,23.60919599592953],[120.381127875454,23.60913039457612],[120.3806292965941,23.60908456774527],[120.3798031348048,23.60898621684932],[120.3792761284532,23.60894039080849],[120.378635085858,23.6088945720236],[120.3779941231111,23.60884884352674],[120.377531247493,23.60882922409785],[120.376455726023,23.60880285709018],[120.3755156053037,23.60878969831242],[120.3748319286281,23.60879635594081],[120.374190933511,23.60878983879554],[120.3735784311218,23.60878973652154]]}},{"type":"Feature","properties":{"name":"潭肚寮堤防","levee_type":"河堤","river":"三疊溪","basin":"北港溪","county":"嘉義縣","side":"右","status":"","source":"WRA 中央管河川河堤"},"geometry":{"type":"LineString","coordinates":[[120.3998891933503,23.60945008774889],[120.3997015494998,23.60969218635945],[120.3993825792487,23.61008408342225],[120.3990850178048,23.6104241012721],[120.3986346679557,23.61097747279733],[120.397959199711,23.61183040976644],[120.3974963646114,23.61242414165325],[120.3972899550077,23.61267774762843],[120.3970898453551,23.61293143717611],[120.3969271996148,23.61312731840888],[120.3967583195974,23.61333485099554],[120.3965331263955,23.61362882787062],[120.3963517818684,23.61385939330642],[120.396214198455,23.61403232044822],[120.3961203899757,23.61413605833788],[120.3960202747553,23.61424558073547],[120.3958826573163,23.61437817255026],[120.3957388221261,23.61451068481723],[120.3955261401165,23.6146720898486],[120.3951446208016,23.61493158891143],[120.3950320328617,23.61500071437242],[120.3948694300932,23.61508715627986],[120.3947193588986,23.61516211798134],[120.3944878556973,23.6152543535792],[120.3942877099085,23.6153293044955],[120.3940500142521,23.61539853876901],[120.3938061149191,23.61545614191381],[120.3936185430593,23.61548495741164],[120.3933808288118,23.61550229810914],[120.3931243836107,23.6155138927131],[120.3928366105305,23.61551957915207],[120.3925676734685,23.61550817880766],[120.3922987572639,23.61544071970577],[120.3920985791088,23.61540616629294],[120.3919421761579,23.61537162060656],[120.3917857804055,23.61533129841697],[120.3916419832049,23.61529104392603],[120.3914668778982,23.61522765142464],[120.3912604546967,23.61514707747555],[120.391029023516,23.61504335376075],[120.3908413604403,23.6149454139416],[120.3905599304683,23.61477833260935],[120.3902596824189,23.61460552530379],[120.3897530646545,23.61430593601944],[120.3894215083361,23.61410998270598],[120.3888836413558,23.61380465926846],[120.3884708011062,23.61356841094077],[120.3881018098379,23.61333794410254],[120.3879391752945,23.61324572869766],[120.3875075840735,23.61302098255498],[120.3869258215854,23.61273327289677],[120.3865380259906,23.61254913995788],[120.3861689436565,23.61238796018598],[120.3857874250588,23.61222670044915],[120.3853245846723,23.61205413862208],[120.3848992838811,23.61189871322815],[120.3844613841364,23.6117432930456],[120.3840297656489,23.6116050861464],[120.3835606710411,23.6114669421317],[120.3831067253956,23.61134178884615],[120.3822446990602,23.61106316728471],[120.3816765200849,23.61092340194345],[120.3812633765164,23.61084466930128],[120.3806580225737,23.61075945294275],[120.3801095963396,23.61070702138186],[120.3795042272839,23.61065468819023],[120.3790055365691,23.61060875922335],[120.3786708094358,23.61058910036542],[120.378186478676,23.61057613751526],[120.3775240346961,23.61056970398822],[120.3763203639006,23.61056296193618],[120.3749243133106,23.61049721437194],[120.3739698955575,23.61049045854583]]}},{"type":"Feature","properties":{"name":"溪口堤防溪口堤防（上）","levee_type":"河堤","river":"三疊溪","basin":"北港溪","county":"嘉義縣","side":"左","status":"","source":"WRA 中央管河川河堤"},"geometry":{"type":"LineString","coordinates":[[120.421468304991,23.60462114917772],[120.4211170134884,23.60446510472264],[120.420420824726,23.60414145827512],[120.419517664946,23.60373112973077],[120.4192668005449,23.60360977056192],[120.4190597692227,23.60350576147063],[120.4188716968931,23.60341905204447],[120.4182945646534,23.60315316268451],[120.4177802355352,23.60291055353995],[120.4172471719437,23.60266779325795],[120.4169711162345,23.60254069581841],[120.4167139997029,23.60244823055031],[120.4165007913587,23.60237879981359],[120.4161369940809,23.60228062960046],[120.4157982938924,23.60219974724009],[120.4154031549726,23.60210730982872],[120.4150707408442,23.6020379687217],[120.4144560971054,23.60193981756382],[120.41404209944,23.6018820593256],[120.4136093660613,23.60182424041458],[120.4132268527344,23.60177798684375],[120.4128692927964,23.60173187417402],[120.4125996038602,23.60168562968532],[120.4123236223021,23.60163361934739],[120.4121417139971,23.60159319748324],[120.4118281235871,23.60148066983649],[120.4110154549038,23.60126117102143],[120.4101060483966,23.60105898849955],[120.40969211028,23.60097236368726],[120.4095164983327,23.6009434865028],[120.4094224376613,23.60092612503239],[120.4093471651603,23.60093192565082],[120.4092844841878,23.60094348287205],[120.4092217895939,23.60096659046129],[120.4088580083744,23.60114582172657],[120.4080949198922,23.60149955556226],[120.4074882594047,23.60182237512683],[120.4070191265206,23.60208180998694],[120.4067063956615,23.60230075265624],[120.4064499962368,23.60248522900749],[120.4062811106417,23.60262941429622],[120.4061184931188,23.60280228417537],[120.406043423736,23.60290598884615],[120.4059871769519,23.60300407056107],[120.4059433694961,23.60310204164952],[120.4059120738394,23.60320576821951],[120.405893370721,23.60331525131474],[120.4058808258475,23.60347660762462],[120.4058870310303,23.60362647490769],[120.4059246332847,23.603793619933],[120.4059496229825,23.60390312397056],[120.4059871506604,23.60399537434335],[120.4060246865912,23.60408175966061],[120.4060747384228,23.604168306079],[120.4061560078053,23.60428927231382],[120.4062998737947,23.6044737565173],[120.4063874082,23.60462358793455],[120.4065000191043,23.60480803088442],[120.4065625981961,23.60495781185656],[120.4065938203785,23.60505575613829],[120.4066126088301,23.60514812636853],[120.4066126038001,23.6052229298574],[120.4066001780296,23.60534981864313],[120.4065750541303,23.60549386879169],[120.4065438252514,23.60560914609766],[120.4064625099634,23.60580507897406],[120.406412476984,23.60590883460478],[120.4063499448621,23.60599537506261],[120.4062936674947,23.60605294099213],[120.4062436407608,23.60608180307379],[120.4061059659,23.60612794417864],[120.4058995557612,23.60617978721868],[120.4057558304484,23.60622016559412],[120.4056806803413,23.60625474964024],[120.4055743833652,23.60633540236123],[120.4055055862184,23.60639307740469],[120.4054180790813,23.60642768267223],[120.4052929368264,23.60646225444646],[120.4050489781774,23.60650837984822],[120.4048863692447,23.60653714532344],[120.4047925900185,23.6065486604362],[120.40468630595,23.60654864526919],[120.4044799020691,23.60652559493705],[120.4043297886761,23.60650263788796],[120.404123350649,23.60643925362643],[120.4038794389483,23.60637583815712],[120.4037043102554,23.6063355054618],[120.4035291692194,23.60630663208221],[120.4033165518119,23.60627790785016],[120.403072581167,23.60626628485491],[120.4026160465492,23.60624903765227],[120.4021531936151,23.60621109185178],[120.4018404718953,23.60622248471958],[120.401734093657,23.60623410480405],[120.4015465246137,23.60626867818803],[120.4014026475046,23.60630327412336],[120.4011649465461,23.60638971438125],[120.4008772353375,23.60649337450428],[120.4005708529889,23.60660870375122],[120.4003832315035,23.60668938362433],[120.4002080477531,23.60677004349155],[120.4000516806524,23.60685076571796],[120.399907900555,23.60694292909741],[120.3997640370758,23.60703527175857],[120.3995826628839,23.60716204895633],[120.3994075748596,23.60730036632704],[120.3990885943047,23.60755962809331],[120.3989071802049,23.60772105225498],[120.398732060445,23.60788815171087],[120.3986757789793,23.60795148785127],[120.3986007064175,23.60806104948054],[120.3984756453012,23.60823971280903],[120.398313050852,23.60847031446606],[120.3982067594805,23.60862016599477],[120.3979941367892,23.60888522011983],[120.3977626765165,23.60916762514996],[120.3976063476711,23.60935788388682],[120.3972123447595,23.60983046265753],[120.3967019926722,23.6103779547011],[120.3962954243047,23.61086205297263],[120.395976450044,23.61123674748264],[120.3956637547209,23.61162876218031],[120.3952571985923,23.61217053815082],[120.3950508312144,23.61245871462267],[120.3947192424982,23.61284499177796],[120.394506601716,23.61304095651016],[120.3943940035127,23.61312153222886],[120.3941688415698,23.6132484837498],[120.3939749791941,23.61334064585272],[120.3937686172163,23.61341559173106],[120.3935496831654,23.61346745464897],[120.3933807757008,23.61349054420976],[120.3931556094468,23.61348475300042],[120.3929053985348,23.61348477526951],[120.3927615827261,23.61346171381501],[120.3923175005598,23.61331356715845],[120.3920360373477,23.61323872640448],[120.3917858245301,23.61316960285295],[120.3915356311632,23.61308324165155],[120.3911666194703,23.61293915665636],[120.3908475867492,23.61280670935775],[120.3905661850735,23.61267996895393],[120.390315958568,23.61255325909367],[120.3900719582447,23.61242075971395],[120.3897843056233,23.61225359204855],[120.3893527414766,23.61200581210761],[120.3888336142666,23.61170041900648],[120.3881205227236,23.61129706925552]]}},{"type":"Feature","properties":{"name":"上菜園堤防","levee_type":"河堤","river":"三疊溪","basin":"北港溪","county":"嘉義縣","side":"右","status":"","source":"WRA 中央管河川河堤"},"geometry":{"type":"LineString","coordinates":[[120.4212059727802,23.60596871176599],[120.4201573188791,23.60547591878783],[120.419563513132,23.60519645634421],[120.4191381515267,23.60499857816573],[120.4186370005269,23.60476570230817],[120.418148366721,23.6045328982164],[120.417179726906,23.60407886270408],[120.4169059843616,23.60394304331209],[120.4166364915861,23.60383056572921],[120.4164216449428,23.60374135137506],[120.4161858001872,23.60365213735396],[120.4160216061179,23.60359389516426],[120.4157478475927,23.60351240452119],[120.4155498947842,23.60345417881459],[120.4153561845779,23.60340376816104],[120.4151076750701,23.60334552306041],[120.4149560473693,23.60331072402082],[120.4148171460849,23.60328348831702],[120.4144591214696,23.60322536689751],[120.4140253446468,23.60316708207344],[120.4131073264861,23.60303912469394],[120.4119870381353,23.60282334148276],[120.4111068554758,23.60270311033003],[120.4103024863794,23.60257907240784],[120.4100665666963,23.60254797624564],[120.4098981702968,23.60253245651077],[120.4097001986198,23.60252864800126],[120.4095906842246,23.60252868378312],[120.4094348786113,23.60254030607689],[120.4093085715033,23.60255591698074],[120.4092285213305,23.60256752062255],[120.4091022004248,23.60259468131358],[120.4089589993629,23.60262189564942],[120.4088452763071,23.60264912801134],[120.4087526336035,23.60267627044078],[120.4086179189887,23.60271902382894],[120.4085126618872,23.60275782467781],[120.4082936005027,23.60286644709634],[120.4081209851476,23.6029479647034],[120.4079904555181,23.60300232154829],[120.4079188533674,23.6030373139182],[120.4078384961492,23.60309042091562],[120.4077571628647,23.60316526166436],[120.4076758605611,23.6032806177097],[120.4076195144281,23.60339593368014],[120.4075883067048,23.60349388708595],[120.4075632763492,23.60362647942154],[120.4075633050365,23.60374161799772],[120.4075883670633,23.60392610735767],[120.4076383908319,23.60410487219966],[120.4077321575647,23.60438138163013],[120.4078322682221,23.6046177286391],[120.4079697913632,23.60490599056423],[120.4080198635576,23.60504433178438],[120.4080449139732,23.60517107183492],[120.4080699159636,23.60533823608651],[120.4080699026429,23.605626352813],[120.408013670539,23.60605866100335],[120.4078885145162,23.60645064903927]]}},{"type":"Feature","properties":{"name":"陳井寮堤防","levee_type":"河堤","river":"石龜溪","basin":"北港溪","county":"嘉義縣","side":"右","status":"","source":"WRA 中央管河川河堤"},"geometry":{"type":"LineString","coordinates":[[120.4080857277055,23.61122294484164],[120.4079981614052,23.6111653281396],[120.4077917466851,23.61100385172867],[120.407629106501,23.61084248872246],[120.4075102967299,23.61070415964391],[120.4074289490315,23.61057741259786],[120.4073601551745,23.61042177155486],[120.4073257162448,23.61022003321162],[120.4072444221395,23.60998374687737],[120.4071880571313,23.60983963956332],[120.4071317853241,23.60968407350684],[120.4070630101573,23.60951688661038],[120.4069316901564,23.60924025258887],[120.4068190941474,23.60904425813728],[120.4066689755939,23.60881953728717],[120.4065314036636,23.60864081692792],[120.4064687861411,23.60852550414361],[120.4064000352194,23.60833539950729],[120.4063749994031,23.6081970204473],[120.4063937152693,23.60800687010909],[120.4064125071117,23.60789152383436],[120.4064624852626,23.60776475883482],[120.4065375812962,23.60763795644182],[120.4066439458234,23.60749964600297],[120.4067877660483,23.60737851103638],[120.4069254054339,23.60729212627452]]}},{"type":"Feature","properties":{"name":"蘆竹角堤防","levee_type":"河堤","river":"三疊溪","basin":"北港溪","county":"嘉義縣","side":"右","status":"","source":"WRA 中央管河川河堤"},"geometry":{"type":"LineString","coordinates":[[120.4069723590657,23.61203568820161],[120.4067346796934,23.61181091272068],[120.4065533373461,23.61162061240407],[120.4064719567507,23.61152264951192],[120.4063718858619,23.61138429073253],[120.4062280646382,23.61115377860109],[120.4061154598118,23.61095786854536],[120.406040359037,23.61080801127396],[120.4059778188981,23.61062348521471],[120.4059340553227,23.61047367133197],[120.4059309681965,23.61034109253741],[120.4058433463151,23.61012791549202],[120.4056996087587,23.60983397863407],[120.405530660068,23.60955153763623],[120.4052929277426,23.60917689519386],[120.4051303789615,23.60894633135488],[120.4050114957288,23.60880800674202],[120.4048676767508,23.6086523972641],[120.4047738437519,23.60857169331764],[120.404679990104,23.60850831374687],[120.4044924112496,23.60841034046105],[120.4042109318675,23.60828932114576],[120.4039858519364,23.60821441556686],[120.4037543792178,23.60815097744337],[120.4034666271769,23.60807607672718],[120.4032477262262,23.60803571972675],[120.4030351112002,23.60800690318678],[120.4028599559287,23.60798966782994],[120.4026347895543,23.60798965382237],[120.4024096163727,23.60799541450057],[120.4022345043002,23.60797461886045],[120.4020906401744,23.60799775481737],[120.4018342372735,23.60805534912253],[120.401715397601,23.6080899065515],[120.4013964980916,23.60820525309969]]}},{"type":"Feature","properties":{"name":"鎮平堤防","levee_type":"河堤","river":"北港溪","basin":"北港溪","county":"雲林縣","side":"左","status":"","source":"WRA 中央管河川河堤"},"geometry":{"type":"LineString","coordinates":[[120.4054110933904,23.6642060406172],[120.4039620965088,23.66293813360875],[120.40327887069,23.66244340401567],[120.4019816383624,23.66146522566625],[120.4014288787982,23.66106231320755],[120.4009069044419,23.66065951421997],[120.4002697693523,23.66020002254778],[120.399732455092,23.65979711159913],[120.3993947179167,23.6595638689924],[120.3989726268273,23.65924580045268],[120.3987039179519,23.65904790263696],[120.3985197256018,23.65891352925457],[120.398335478829,23.6587721143344],[120.397867169499,23.6583692404054],[120.3974757817583,23.6580298831621],[120.3971150150587,23.6577330607524],[120.3962015108587,23.65692713144594],[120.3957409624126,23.65650285226321],[120.3953571710181,23.65614227056615],[120.3950347046797,23.65584537414963],[120.394423915171,23.65518785094733],[120.3938789508051,23.65462221710245],[120.3933262508972,23.6540495184262],[120.3930039405081,23.65371722047069],[120.3928120825463,23.65349805443448],[120.3920982733296,23.65261075994483],[120.39177588929,23.65221481975171],[120.3914151841931,23.6517834559353],[120.3911157979626,23.65139457132676],[120.3909008923632,23.65107635456796],[120.3903713049382,23.65018539460348],[120.3900796464903,23.64961266436298],[120.389726532891,23.64888425696748],[120.3894275513636,23.64814498178861],[120.3888592884876,23.64661516889759],[120.388578088804,23.64573227565019],[120.3880990455033,23.64433599521288],[120.3875865203433,23.6428781752644],[120.3869848044117,23.64110195656411],[120.3860489058317,23.63844307142652],[120.3854336981267,23.63668748822247],[120.3850994140265,23.63568157409042],[120.3848543468783,23.63491171451169],[120.3846761484487,23.63442914942653],[120.3845090299468,23.63397750075881],[120.3841079395874,23.63281751286603],[120.3839519801723,23.63237617084729],[120.383818329933,23.6319657059266],[120.3837069154723,23.63159622238633],[120.3835843996699,23.63115486407867],[120.3833950096386,23.63040559510588],[120.3831127155753,23.62929665823531],[120.3830272876369,23.62896586500764],[120.3829503109233,23.62870592152572],[120.382864880103,23.62835943017476],[120.3828132411787,23.62794193250777],[120.3826679349451,23.62734342489934],[120.3822918886397,23.62597301231675],[120.3819842033103,23.62520118078382],[120.3817448783668,23.62463413583778],[120.3816080900981,23.62433483321695],[120.3813601803506,23.62391745638319],[120.3811380436663,23.62356315527198],[120.3808157710417,23.62312776997442],[120.3806232066532,23.62288933619737],[120.3799728906698,23.6221373930829],[120.3794883981907,23.62150772308028],[120.378771601312,23.62063957739962],[120.3782605097005,23.6200221202918],[120.3776062935275,23.61919676528013],[120.3772612139671,23.61878087744994],[120.3767568626623,23.61812642894382],[120.3757746726462,23.61696429165909],[120.3751840224725,23.61624860017142],[120.3745138034135,23.61545944450463],[120.3737571913413,23.61453552663699],[120.3732196401155,23.61391725764193],[120.3727218937257,23.61326546629898]]}},{"type":"Feature","properties":{"name":"蒜頭支線堤防","levee_type":"河堤","river":"朴子溪","basin":"朴子溪","county":"嘉義縣","side":"右","status":"","source":"WRA 中央管河川河堤"},"geometry":{"type":"LineString","coordinates":[[120.3013229123454,23.50524924132524],[120.3013743185491,23.50461340385725],[120.3014515362413,23.50320379610935],[120.3014875661356,23.50258689063941],[120.3015339050593,23.50161875369224],[120.3015865808029,23.50128171251417],[120.3015815137829,23.50107763290831],[120.301571147941,23.50097328159274],[120.3015608641253,23.50086884109282],[120.3014785384482,23.50047500153097],[120.301298469704,23.49976779052428],[120.3011389833242,23.49906544547341],[120.3010206432427,23.49857179516165],[120.3008868637539,23.49814940933592],[120.3004788399932,23.49644850653571],[120.3004192295897,23.49622811258718],[120.3003968128171,23.49615229911908],[120.3003446203042,23.49602845906214],[120.3002736870413,23.49591132521575],[120.3001318177202,23.49572533164218],[120.2997921380577,23.49536039056532],[120.2995644499714,23.49508144352805],[120.2994748949666,23.49494719984459],[120.29938151939,23.49480947825584],[120.2992696103514,23.4946166572174],[120.2991128594588,23.49431019879093],[120.2986798973396,23.49331514707095],[120.2982798913485,23.49230285256157],[120.2975745163084,23.49064326531371],[120.2973954396543,23.49021290362034],[120.2973543641509,23.49009579605973],[120.2973095704082,23.48996844450144],[120.2972685115445,23.48983419306723],[120.2972050974899,23.4895827136825],[120.2971677755964,23.48934519460322],[120.2971491608353,23.48913516597245],[120.2971342628932,23.48893547155084],[120.2971342804262,23.48871512519599],[120.2971455337273,23.48838114065224],[120.2971604993723,23.48820213218298],[120.2972016346633,23.48791969371442],[120.2973024427561,23.48727592448848],[120.2973622303408,23.48686956844343],[120.2973846752127,23.48669751477991],[120.2973846615072,23.48657010779802],[120.2973846345399,23.48647031146928],[120.2973549026458,23.48629118094058],[120.2973249719777,23.48614660650756],[120.2972877099755,23.48602269111123],[120.2972354829942,23.48587458187287],[120.2971458810521,23.48569558442422],[120.2970488119285,23.48553020622679],[120.2969480401925,23.48538562393259],[120.2968734096722,23.4852892001855],[120.296795071788,23.48520319565637],[120.2966532435972,23.48507920003641],[120.2964404704845,23.48491395946758],[120.2963322064075,23.48483812754439],[120.2962575445815,23.48478654845033],[120.2961865782599,23.48475207057373],[120.2960671707318,23.48471426337031],[120.2957498994428,23.48462464763314],[120.2950518460864,23.484380346733],[120.2947606803536,23.48431497878113],[120.2931928793192,23.48390161299248],[120.2928942911296,23.48383624006052],[120.2926068377422,23.48377082970578],[120.2924201446696,23.48373297086294],[120.2922597365266,23.48371232287727],[120.2920692920949,23.48369850759035],[120.2918714876867,23.48370192215804],[120.2916586475851,23.48370189527671],[120.2913862513349,23.48372943601249],[120.2912293870372,23.48374664040795],[120.2910838250171,23.4837740958609],[120.2909307617268,23.48381210223375],[120.290732882183,23.48387398559234],[120.2905536973184,23.48394278616645],[120.2903670173674,23.48403242407437],[120.2901728944757,23.48412873359092],[120.2899862262982,23.4842389439674],[120.2897622714107,23.48437664695061],[120.2895793215647,23.48449710115823],[120.2886423455825,23.48513409593797],[120.2864433268777,23.48660070088471],[120.2863239334718,23.48667983338654],[120.2861558685492,23.48682447981426],[120.2860177267943,23.48694839663656],[120.2858385506648,23.48713431624436],[120.2857303190145,23.48726511393884],[120.2855698086526,23.48745452162422],[120.2853569575583,23.48773339743522],[120.2851552804173,23.48799121055327],[120.28500604861,23.48824591121378],[120.284767011326,23.48869354553215],[120.2838933019968,23.49034618406217],[120.2831689377058,23.49169918660252],[120.2826473103783,23.49234214750997],[120.2824553003578,23.49248792610556],[120.2823717161116,23.49256760905481],[120.2822852297449,23.49263642695236],[120.2821838201848,23.4926996392034],[120.2816140695025,23.49302698568337],[120.2809279942086,23.49339001260955],[120.2802448231956,23.49375307699176],[120.2800688128046,23.49383003848428],[120.2799196782967,23.4938851484015],[120.2798033923859,23.49392362667778],[120.2796810211179,23.49394831160522],[120.279576607257,23.49395933165388],[120.2791201878413,23.49398964975601],[120.2787474120905,23.4939951462378],[120.2785803514846,23.49399236802002],[120.278478891255,23.49398411653178],[120.2783326973321,23.49396202626486],[120.2781447950796,23.49391810552119],[120.2779628724121,23.49385756884954],[120.2776735774813,23.49374746910466],[120.2772678744531,23.49357704294899],[120.2770500943385,23.49349727752633],[120.276966590488,23.4934807750629],[120.2768740875368,23.49347245823567],[120.2767756904801,23.49346975023689],[120.2766175800586,23.49348341889562],[120.2764981982863,23.49349181038435],[120.2752811934588,23.49337162432132],[120.2741298325315,23.49329457258885],[120.2716659758834,23.4931515732021],[120.271146852507,23.49312406050402],[120.2710245807501,23.49310480447678],[120.2708993228266,23.49308560032094],[120.2707888796693,23.49304709677706],[120.2704965959877,23.49294805846531],[120.2698941164667,23.4927500220109],[120.2690826908924,23.49248045530199],[120.2676411755911,23.49197161299614],[120.2673041807661,23.49185882602715],[120.2672205713956,23.49182301304468],[120.2671699091038,23.49181198559786],[120.2671132340673,23.49180376826626],[120.2670446554006,23.49180378940949],[120.2662512792772,23.49191378214003],[120.2652848388596,23.49199387545648],[120.2636144271349,23.49221946125703],[120.2615538004227,23.49249436549055],[120.2600862073778,23.49270343187757],[120.2591137320089,23.49284099209049],[120.2585321196345,23.49292347996651],[120.2584038236596,23.49293996809182],[120.2583203121121,23.49294548210306],[120.2582576629211,23.49293727851237],[120.2581055458296,23.4929069021644],[120.2579801894135,23.49284086797372],[120.2578967001427,23.49279143246276],[120.2578072521462,23.49271981417258],[120.2577356348096,23.49264824447468],[120.257675962626,23.49256572998836],[120.2576221924707,23.49245568107964],[120.2576310219871,23.49234019238631],[120.2575653746841,23.49209248077048],[120.2572550364383,23.49067820471395],[120.2568669881812,23.48891184650591],[120.2565984015296,23.48777817936679],[120.2562463100286,23.48626493129948],[120.2559299529567,23.48491363006535],[120.2555956437195,23.48350492216564],[120.2553360567173,23.4821236720012],[120.2550733983798,23.48094063447438],[120.2547631305346,23.47959782061999],[120.2546854763142,23.47932270541557],[120.2546437360684,23.47920712648675],[120.2545840783964,23.4791081002459],[120.2544945690996,23.47901455565688],[120.2543693210541,23.47892100334699],[120.2542619716545,23.4788549302548],[120.2541605023443,23.47881085850221],[120.2540531338187,23.47878349374562],[120.2537548968212,23.47874492600432],[120.2516790233548,23.47842583364134],[120.2498477145215,23.47813423473139],[120.2495256134673,23.47808471057035],[120.2493764621396,23.47805725910378],[120.2492690912236,23.47805172907953],[120.2480045757299,23.47803521295884],[120.2445449972526,23.47795471885768],[120.2421112404172,23.47790536849371],[120.2395344183352,23.47787793820493],[120.2393554922809,23.47786147968451],[120.2392481304301,23.47782843339115],[120.2377269414264,23.47727279513991],[120.2363906984261,23.4767623167143],[120.2305267394761,23.47470288679747],[120.2301871093787,23.47471937251499],[120.2247895843888,23.47968338532982]]}},{"type":"Feature","properties":{"name":"蒜頭糖廠邊堤防","levee_type":"河堤","river":"朴子溪","basin":"朴子溪","county":"嘉義縣","side":"左","status":"","source":"WRA 中央管河川河堤"},"geometry":{"type":"LineString","coordinates":[[120.3024503999752,23.48016959985698],[120.3022488269202,23.48053457104555],[120.3022040082019,23.48061728902628],[120.3015020190129,23.48151238078714],[120.3014274423386,23.48156754854775],[120.3013079524632,23.48161572956094],[120.3011959792869,23.4816363938013],[120.3010317404148,23.48162949232675],[120.3007778667897,23.48162260773507],[120.3004941996629,23.481622557922],[120.3002851938273,23.48163628480961],[120.2998372016311,23.48167762115639],[120.2993146584836,23.48176709972605],[120.2981574460343,23.48198738755029],[120.2978886672767,23.48202174330697],[120.297716933665,23.48203559901181],[120.2976049995494,23.48202179879409],[120.297470570765,23.48198045853156],[120.2963060893524,23.48150520949414]]}},{"type":"Feature","properties":{"name":"灣內堤防","levee_type":"河堤","river":"朴子溪","basin":"朴子溪","county":"嘉義縣","side":"左","status":"","source":"WRA 中央管河川河堤"},"geometry":{"type":"LineString","coordinates":[[120.316313548375,23.505849613336],[120.3161680561809,23.50588681358893],[120.315861029553,23.50601352304474],[120.3156347631904,23.50612529953344],[120.3153276745832,23.50630416328813],[120.3149478966141,23.50653523966609],[120.3147700974509,23.50665440716089],[120.3146164880335,23.50675881672482],[120.3144872501901,23.50681978975402],[120.3143822372696,23.50690172444355],[120.3142205765353,23.50705836534091],[120.3138165192862,23.50747572993285],[120.3133640176115,23.50797494378009],[120.3129922854717,23.50839985144358],[120.3129115129585,23.5084743374561],[120.3128630163426,23.50851161151428],[120.3127984122207,23.50854145983716],[120.3127094868834,23.50857875540508],[120.3125882360586,23.50860850691782],[120.3123701166053,23.50864585555782],[120.3118367074852,23.50874276366675],[120.3113356903598,23.50883214772745],[120.3110044234617,23.50889168209386],[120.3108185658357,23.50891410594738],[120.3103983695598,23.50893649396793],[120.3101639983838,23.50894394700264],[120.3099780601281,23.50892901364439],[120.309759923912,23.50891411740403],[120.3095659804654,23.5088842828264],[120.309404395033,23.50885450341537],[120.3092104022185,23.50881726911317],[120.3089679766434,23.50876506501998],[120.308790187533,23.50871288012886],[120.3086285044921,23.50866821118628],[120.308329572756,23.50856393834018],[120.3081336153588,23.50846450890049],[120.3078545671207,23.50831005208815],[120.3075685468958,23.50813637645634],[120.3073732734454,23.50800772070469],[120.3071151105347,23.50782754578023],[120.3069406754213,23.50766026806608],[120.3065989048953,23.50732580403222],[120.3064664486545,23.50715202816135],[120.306347791277,23.50697824930346],[120.3062570838607,23.50682386885452],[120.3061665230811,23.50664377418421],[120.30599910486,23.50628989689126],[120.3059222635722,23.50610970800165],[120.3058455365702,23.50588458586017],[120.3057967945768,23.50566586914584],[120.3057619187585,23.50542134403723],[120.305754859679,23.50524773778651],[120.3057688758492,23.50488103608944],[120.3058176853805,23.50428920260252],[120.3058595775511,23.50387738253315],[120.3059084446976,23.50313756976792],[120.3059642458762,23.50249421351483],[120.3059921705786,23.50217894212504],[120.3059990741181,23.50197312219704],[120.3059921706889,23.50164504131995],[120.3060254959119,23.50132977448493],[120.3060045753537,23.50114967490225],[120.3059626336359,23.50089224771249],[120.3059208305272,23.50070574398341],[120.3058580533271,23.50045481632547],[120.3057953555246,23.50023601199194],[120.3057673774417,23.50013314980537],[120.3057324936216,23.50001738603735],[120.305634861006,23.49973424907659],[120.3055372269844,23.49945120238124],[120.3054465806932,23.49918096813902],[120.3053559168943,23.49891723035506],[120.3052373718175,23.49857625738816],[120.3050838608645,23.49815164206066],[120.3049031401641,23.49762670116521]]}},{"type":"Feature","properties":{"name":"安和堤防","levee_type":"河堤","river":"朴子溪","basin":"朴子溪","county":"嘉義縣","side":"右","status":"","source":"WRA 中央管河川河堤"},"geometry":{"type":"LineString","coordinates":[[120.3182715368,23.51237082756249],[120.3169704044172,23.51246029680283],[120.3161218122727,23.51252003463609],[120.315499573538,23.51256472740247],[120.3148530275332,23.51259448962384],[120.3144489225343,23.51255861991023],[120.3136811171509,23.51261822399488],[120.3130911926494,23.51265548227893],[120.3126386847,23.51267790509369],[120.3123395913516,23.51270022575519],[120.3121860833127,23.51272252403652],[120.3120325088306,23.5127598903865],[120.3116688264819,23.51286412401167],[120.3110061473264,23.51308037108401],[120.3101252412261,23.51335607186821]]}},{"type":"Feature","properties":{"name":"雙涵堤防","levee_type":"河堤","river":"朴子溪","basin":"朴子溪","county":"嘉義縣","side":"右","status":"","source":"WRA 中央管河川河堤"},"geometry":{"type":"LineString","coordinates":[[120.3101091000586,23.51331877848802],[120.3093979040403,23.51352014402553],[120.3091070293659,23.51360212359426],[120.3089695968183,23.51363942655075],[120.308832230743,23.51366166145521],[120.3086625004342,23.51368411165514],[120.3083877317073,23.51369898457718],[120.3081142647004,23.51370782863413],[120.3078979879945,23.51370775346134],[120.3076119375222,23.51369486999439],[120.307325887092,23.5136819865335],[120.3070817527367,23.51365628782994],[120.3068724986715,23.51362408990856],[120.3065655190081,23.51355968505208],[120.3063074250961,23.51350186444078],[120.3060632951632,23.51344386255301],[120.3058260733724,23.51336663976325],[120.305386555702,23.51321868913636],[120.3048493961853,23.51300631982024],[120.3045354993573,23.51282724139676],[120.3042495123836,23.51266638324321],[120.3037961180851,23.51233184271678],[120.303607680417,23.51217738051723],[120.3034123656978,23.51202941693498],[120.3031193472856,23.51177850619971],[120.3028334479139,23.51148906720327],[120.3026380432808,23.51125095981354],[120.3024706384286,23.51104506414898],[120.3023101428082,23.51081985714503],[120.3021902922479,23.51055612214238],[120.3020647640245,23.51032450765447],[120.3018903891729,23.51000925181224],[120.3017787563047,23.5097712285637],[120.3016880701528,23.50954610684026],[120.3016113453733,23.50932089370705],[120.3014858089032,23.50896701357857],[120.3014021456554,23.50870967858156],[120.3013462881749,23.50846524310603],[120.3013044820624,23.50831085962145],[120.3012695713136,23.50811135828014],[120.3012416593265,23.50798268907186],[120.3012137675371,23.50778327788368],[120.3011928974615,23.50758377645201],[120.3011719587335,23.5074101708282],[120.3011510617294,23.5071270235428],[120.3011510671374,23.50652869231024],[120.3011928410564,23.50531280676606]]}},{"type":"Feature","properties":{"name":"內溪洲堤防","levee_type":"河堤","river":"八掌溪","basin":"八掌溪","county":"嘉義縣","side":"右","status":"","source":"WRA 中央管河川河堤"},"geometry":{"type":"LineString","coordinates":[[120.4367501256146,23.44164157755621],[120.4356105094592,23.44175420866583],[120.4338196417482,23.44149120893769],[120.4328577553233,23.44122241293374],[120.4325819742828,23.4410669116575],[120.432183648058,23.44074842194537],[120.4318465776673,23.44047979007226],[120.4313410064019,23.44005586174918],[120.4309579936097,23.43964586593856],[120.4307129001443,23.4393490837288],[120.4305060883193,23.43899566934399],[120.4304068104443,23.43867769579676],[120.4303455455589,23.43847269304075],[120.4302459674165,23.43798501225286],[120.4302001136995,23.43784364719705],[120.4298093497334,23.43694605770867],[120.4296026376867,23.43652910897931],[120.4293958739926,23.43612623752509],[120.4290587810795,23.43558913182671],[120.4282315376726,23.43428871020991],[120.4279022812639,23.43374457501729],[120.4277719708748,23.43356079769225],[120.4275805438173,23.43332750706375],[120.4236527512263,23.43015744032819],[120.4191715956255,23.42678408381995],[120.4153141328309,23.42528259788103],[120.4100102591155,23.42457835289855],[120.4091664277753,23.42452285892878],[120.4079609880909,23.42468968285201],[120.4069364168386,23.42452286218776]]}},{"type":"Feature","properties":{"name":"忠義堤防","levee_type":"河堤","river":"八掌溪","basin":"八掌溪","county":"嘉義縣","side":"右","status":"","source":"WRA 中央管河川河堤"},"geometry":{"type":"LineString","coordinates":[[120.4892458730023,23.45699570018502],[120.4889665119556,23.45689419592442],[120.4887422186689,23.4568160505475],[120.4884924392678,23.45675355129064],[120.4882257086526,23.45671844942016],[120.4879886926833,23.45670286121239],[120.4877432634927,23.45670485304099],[120.4874299470098,23.45672041221443],[120.4871674573482,23.45675169514274],[120.4869050245556,23.45680057662734],[120.4867061326369,23.4568512668853],[120.4864859851864,23.45690989645717],[120.4861557848704,23.45702315506558],[120.485994911745,23.45709347155692],[120.4857568379753,23.45719501340525],[120.4855832722093,23.45729846830866],[120.4853716244907,23.45742345539348],[120.4846984526245,23.4578510812081],[120.4843386003283,23.45807768143548],[120.4836951645114,23.45847022048483],[120.4831278932912,23.45879830655253],[120.4815531845539,23.45961985356981],[120.4810874874749,23.45981351594221],[120.4809435289025,23.45983693849522],[120.4808419193333,23.45984475027693],[120.4806811126159,23.45989936193524],[120.4804439902791,23.45996969024451],[120.4800968381739,23.46007118591746]]}},{"type":"Feature","properties":{"name":"富收堤防","levee_type":"河堤","river":"八掌溪","basin":"八掌溪","county":"嘉義縣","side":"左","status":"","source":"WRA 中央管河川河堤"},"geometry":{"type":"LineString","coordinates":[[120.4928569764417,23.4505822896976],[120.4923028808169,23.45061092070983],[120.4921015812595,23.45062819308421],[120.4918834054895,23.45068387414672],[120.4904610684072,23.45126086868734],[120.4894282366809,23.45165145362873],[120.4889626068693,23.4518544824764],[120.4887086246232,23.45197945958926],[120.488420728887,23.45212791620469],[120.4879974190855,23.45235441075215],[120.4875233107348,23.45264342467092],[120.4868291033866,23.45305739956532],[120.4864311853936,23.45333863794253],[120.4852120789691,23.45416654105668],[120.4847632933317,23.45445553557394],[120.484653287536,23.4545336330266],[120.4843399858039,23.45481488629499],[120.4831461569638,23.45583813976419],[120.4810961882079,23.45747818385313],[120.4808759973054,23.45761875969118],[120.4805457876188,23.45772029287717],[120.4802156143654,23.45781406542621],[120.4798177048361,23.45788431805357],[120.4792842714544,23.45798577231891],[120.4771854425374,23.45869814495425],[120.4728563311356,23.46024238112022],[120.4710276471096,23.46057160653817],[120.4681778067648,23.46070778099707],[120.4670555416507,23.46050342361831],[120.4652836616783,23.46020374199221],[120.4638809203411,23.4598903859054],[120.4624486991294,23.45941358216307],[120.4587498455578,23.45698209807226]]}},{"type":"Feature","properties":{"name":"護岸堤防","levee_type":"","river":"八掌溪","basin":"八掌溪","county":"嘉義縣","side":"","status":"","source":"WRA 中央管河川河堤"},"geometry":{"type":"LineString","coordinates":[[120.5059878360709,23.45493245710989],[120.5056576522642,23.45415138514576],[120.5055729421125,23.45394841830315],[120.5054629147258,23.45377653203112],[120.5053020672215,23.45362032798153],[120.5048702867699,23.45330018964153]]}},{"type":"Feature","properties":{"name":"金蘭堤防","levee_type":"河堤","river":"八掌溪","basin":"八掌溪","county":"嘉義縣","side":"左","status":"","source":"WRA 中央管河川河堤"},"geometry":{"type":"LineString","coordinates":[[120.5131757773726,23.4503337169401],[120.5104242955622,23.4511151038788],[120.5101109954518,23.45120882139707],[120.5098739878581,23.45124007465899],[120.5094168346623,23.45120099994914],[120.5087310087048,23.45115411856813],[120.5081215006648,23.4511072233845],[120.5075627488042,23.45109157270647],[120.5069108228267,23.45109169309578],[120.5062927574013,23.45113069280286],[120.505776382996,23.45117758501604],[120.5053699221158,23.45123229230041],[120.5050905618709,23.45127915466799],[120.5047180392958,23.45137292268194],[120.5043116453665,23.45149793242212]]}},{"type":"Feature","properties":{"name":"仁義堤防","levee_type":"河堤","river":"八掌溪","basin":"八掌溪","county":"嘉義縣","side":"左","status":"","source":"WRA 中央管河川河堤"},"geometry":{"type":"LineString","coordinates":[[120.5347739490558,23.452480152534],[120.5347395859881,23.45251184029598],[120.5346846810703,23.45253081036248],[120.5346160596348,23.45254987527798],[120.5345610376825,23.45254989168605],[120.5345198719537,23.45252454549582],[120.5344993246021,23.45248015055973],[120.5344786735999,23.4524105750047],[120.5344512631597,23.45233450513874],[120.5344101053098,23.45227125474853],[120.5343207710403,23.45221415520114],[120.5342247298994,23.45219514470272],[120.5340874317471,23.45218887165644],[120.5338058907229,23.45221414080589],[120.5331582175733,23.45233687594146],[120.5320849836781,23.45253375273271],[120.5310243089774,23.45275380362866],[120.5304469380655,23.45286381264531],[120.5302335260787,23.4528812914996],[120.5301519704268,23.45284569788568],[120.5299386133949,23.45282247389745],[120.5287900185702,23.45270674834027],[120.5274407422482,23.45256191537634],[120.5264554279819,23.45245198571451],[120.5258215016943,23.45237084149006],[120.5254009981961,23.45232456388018],[120.5246353768521,23.45227241513184],[120.5233864007872,23.4521797712771],[120.52228188666,23.45211027919698],[120.5209702149867,23.4520291948823],[120.5202798708349,23.45194094387085],[120.5192380523079,23.4518656607166],[120.5178886368881,23.45177884835695],[120.5162632515364,23.45168037133573],[120.5154159999105,23.45162247774568],[120.5152277268168,23.45160508168403],[120.5141984112841,23.45152978850441],[120.5131063975248,23.45146614546814]]}},{"type":"Feature","properties":{"name":"竹山堤防","levee_type":"河堤","river":"八掌溪","basin":"八掌溪","county":"嘉義縣","side":"右","status":"","source":"WRA 中央管河川河堤"},"geometry":{"type":"LineString","coordinates":[[120.5281499459974,23.4540529765395],[120.5280365024318,23.45400053072783],[120.5279608580327,23.45397726881016],[120.5277843981342,23.45393078297518],[120.5275070355688,23.45386684798435],[120.5273368475022,23.45383777024943],[120.5271918095557,23.45382607210046],[120.5270027739394,23.45383772506973],[120.5267822534598,23.45386684310509],[120.5263283425696,23.45389585419148],[120.5257611343155,23.45394822958122],[120.5256539906934,23.45395407453439],[120.5255594549978,23.45394239269655],[120.5254144158249,23.45393078477866],[120.5248409779383,23.45386684166179],[120.5247463537608,23.45386102493519],[120.5241917365516,23.45384362059727],[120.5235551339945,23.45384357487644],[120.5233155384971,23.45383770303692],[120.523271474709,23.45384941135189],[120.5173545856037,23.45417609203008],[120.516291720255,23.45445800795964],[120.515021058902,23.45522450450905],[120.5120399822893,23.45635170217325],[120.5109647954175,23.45640802613627]]}},{"type":"Feature","properties":{"name":"南港堤防","levee_type":"河堤","river":"北港溪","basin":"北港溪","county":"嘉義縣","side":"","status":"","source":"WRA 中央管河川河堤"},"geometry":{"type":"MultiLineString","coordinates":[[[120.3268761094325,23.56851536200198],[120.3267250387443,23.56854842578815],[120.3247330354786,23.56905233804593],[120.3235177066579,23.56934757899609],[120.3218852179507,23.56982488210661],[120.3212955068746,23.5699707626608],[120.3207561328618,23.57010339640501],[120.3202311478088,23.57020282943957],[120.3178436105505,23.57069340297431],[120.3164700176865,23.57099168156087],[120.3163262531171,23.57101157333545],[120.3161248638475,23.57102485683805],[120.3159091229134,23.57103154877416],[120.3156357775023,23.57102495557385],[120.3153554070128,23.57099174369698],[120.3150749544651,23.57095862105514],[120.314816036226,23.57090556435583],[120.3145787733237,23.57084592944034],[120.3144276958848,23.57079949706996],[120.3141903882483,23.57065654172306],[120.3139099242039,23.5705173067398],[120.3136151048127,23.57034504284425],[120.3133634001983,23.57017261355734],[120.313169259982,23.57002682322676],[120.3130181938415,23.56989422089875],[120.3128456086387,23.56972182019513],[120.3126083019935,23.56943020263135],[120.3124573296861,23.56921133636286],[120.3123638037781,23.56905889594798],[120.3122991034729,23.56893290523338],[120.3122703117345,23.56884013296153],[120.312234329568,23.56869429980563],[120.3122127797384,23.56855505944963],[120.3122488316433,23.56801808231335],[120.3123134942191,23.56738826091429],[120.3124142194367,23.56651978070617],[120.3124717204537,23.56593642842415],[120.3125221118844,23.565107724693],[120.3125763039668,23.56457732662473],[120.312576301829,23.56416639984225],[120.3125619148807,23.56398069273603],[120.3125475567279,23.56389451437507],[120.312475664857,23.56366249755219],[120.3123605759862,23.56335087861103],[120.3122311551577,23.56302608119851],[120.312137773039,23.56282717404165],[120.3120154902725,23.56262825523183],[120.3118932906843,23.56245586637825],[120.3117782367511,23.56229674386715],[120.3116703901384,23.56218418490869],[120.3115337654278,23.56205817098352],[120.3114043241177,23.56193224968795],[120.3111814337098,23.56173997455536],[120.310987204259,23.56157423687947],[120.3107570507764,23.56140848726983]],[[120.3106923785447,23.56132896932529],[120.3105269577341,23.56124941580583],[120.3102249613525,23.56113670008585],[120.3098007361719,23.56097097518952],[120.3094556283665,23.56083171634834],[120.3090097293578,23.56067933833765],[120.3085926743295,23.5605467325098],[120.3081396765875,23.56042070165598],[120.3075671968572,23.56025757823533],[120.307238682392,23.56019026945864],[120.3069466451767,23.56013976340439],[120.3067094903711,23.56010611684173],[120.306417522351,23.56007239538652],[120.3060616036922,23.5600556258998],[120.3056054098332,23.56005561086203],[120.3050579141374,23.56005550176455],[120.3044648871251,23.56001141666106],[120.3039721668987,23.56001977470379],[120.3036344763257,23.56003653745696],[120.3033881540736,23.56007026886696],[120.3032056891481,23.56010383068532]]]}},{"type":"Feature","properties":{"name":"蘇厝堤防","levee_type":"河堤","river":"北港溪","basin":"北港溪","county":"雲林縣","side":"左","status":"","source":"WRA 中央管河川河堤"},"geometry":{"type":"MultiLineString","coordinates":[[[120.2945757389613,23.54870823478298],[120.2945764065424,23.54871212341466],[120.2945672901501,23.54881306747824],[120.2945308410386,23.54898124448009],[120.2943574433859,23.54953638386708],[120.2940836776118,23.55046154135574],[120.2937370267743,23.55160547978291],[120.2935545936634,23.55227834947493],[120.2934360337049,23.55291757240795],[120.2933720841751,23.55332974868047],[120.2933538312738,23.55356520408449],[120.2933356502017,23.55369986938884],[120.2933356354048,23.55399430172867],[120.2933447732799,23.55463345435978],[120.2933721487406,23.55511285742503],[120.2933721394445,23.55528953487016],[120.2933812854314,23.55547463166729],[120.2934178310959,23.55566802172753],[120.2934151021483,23.55585313591348],[120.293570243995,23.55642504873135],[120.2937161692541,23.55701389737768],[120.2938349191051,23.55751008735937],[120.2939443578303,23.55782126874999],[120.2940172997619,23.55803164041287],[120.2942180921194,23.55843531486984],[120.2943458345206,23.558662453978],[120.2944917880057,23.55888107501394],[120.2946287226435,23.55906619350027],[120.2947656589299,23.55929595511801],[120.2949024711831,23.55943054196609],[120.2950393296795,23.559556737666],[120.2951579106014,23.55967448666058],[120.2952856606619,23.55978378153838],[120.2954498970136,23.559893185478],[120.2955959364864,23.5599941437443],[120.295805818104,23.56011189584529],[120.296225513198,23.56033061584934]],[[120.3031052286635,23.56015433071476],[120.3029045893612,23.56014587955836],[120.3025669322391,23.56017112475006],[120.3018096806987,23.56028038447373],[120.3008333254945,23.56040649122568],[120.2999756487827,23.56051590040192],[120.2994372735139,23.56059152773983],[120.2987164489692,23.5606840270855],[120.2981781014211,23.56072599952028],[120.2978314317413,23.56071756362127],[120.2974846596045,23.56068386076254],[120.2971379450891,23.56062498325381],[120.2968733621833,23.56057456294767],[120.2966543566632,23.56051561607566],[120.2963076896156,23.56038951461628]]]}},{"type":"Feature","properties":{"name":"中寮堤防","levee_type":"河堤","river":"八掌溪","basin":"八掌溪","county":"嘉義縣","side":"右","status":"","source":"WRA 中央管河川河堤"},"geometry":{"type":"LineString","coordinates":[[120.3349802107826,23.39778455989675],[120.3348873625427,23.39774457286879],[120.3347511778327,23.39765891469724],[120.3346768048089,23.39756559268359],[120.3345653864324,23.39746842865667],[120.3345220776144,23.39743701451205],[120.334469340574,23.39739988524608],[120.3342928596412,23.39729701667017],[120.3340700613159,23.39714834817092],[120.3336613079724,23.39685130194885],[120.3325530315703,23.39619971266107],[120.3319649185772,23.39577684263528],[120.3316182083655,23.3955254373828],[120.3310547267396,23.39514818082266],[120.3300765440882,23.39445665966843],[120.3297669087673,23.39422233244024],[120.3295007005005,23.39402230872968],[120.3293149800831,23.39388521508822],[120.3292158717204,23.39381663365225],[120.3291415751448,23.39377092795014],[120.3290053667413,23.39371378346266],[120.3288506196032,23.39365089788634],[120.3286834553854,23.39358803422734],[120.3285595773218,23.3935366421194],[120.3284171618904,23.39347941872377],[120.3282747501076,23.39341660098126],[120.3281447667813,23.39334230199934],[120.3280107724908,23.39323380215178],[120.3276702660482,23.39301658809682],[120.3274102464945,23.3928566186974],[120.3269210784424,23.39254790278861],[120.3263082322279,23.39215368919587],[120.3259057707231,23.39189074790895],[120.3254167037404,23.39155929550585],[120.3250699935266,23.39133649941074],[120.324649000251,23.39101958009361],[120.3243085066271,23.39079090536577],[120.3239184779452,23.39051088701246],[120.3236336715085,23.39030521360928],[120.3232250583514,23.38998516697974],[120.3223707039538,23.38939080260897],[120.3221787973717,23.38924794849011],[120.3220364345904,23.38914515927664],[120.3219064087883,23.38904225715121],[120.3217949845936,23.38896224114424],[120.3216711656214,23.38885941857842],[120.321516385415,23.38867643406693],[120.3214112002935,23.3885622082246],[120.3212687376777,23.38839643406112],[120.321132567368,23.38822505563738],[120.3210769174193,23.38816217389349],[120.3210148968309,23.38809939124332],[120.3208911708645,23.38798501894229],[120.3203866823261,23.38736092717127]]}},{"type":"Feature","properties":{"name":"過溝支線防水堤","levee_type":"","river":"朴子溪","basin":"朴子溪","county":"嘉義縣","side":"","status":"","source":"WRA 中央管河川河堤"},"geometry":{"type":"LineString","coordinates":[[120.3667315687622,23.4994610795687],[120.3568918944299,23.50346933448674],[120.3470720768818,23.50384110122046],[120.3298052718177,23.50432306338817],[120.323789902476,23.50499972002361],[120.316313548375,23.505849613336]]}},{"type":"Feature","properties":{"name":"月眉支線防水堤","levee_type":"","river":"朴子溪","basin":"朴子溪","county":"嘉義縣","side":"","status":"","source":"WRA 中央管河川河堤"},"geometry":{"type":"LineString","coordinates":[[120.359875339782,23.51440791133821],[120.3554398169906,23.51379710537007],[120.3396198065662,23.51099215191208],[120.3182715368,23.51237082756249]]}},{"type":"Feature","properties":{"name":"下潭堤防","levee_type":"","river":"八掌溪","basin":"八掌溪","county":"嘉義縣","side":"","status":"","source":"WRA 中央管河川河堤"},"geometry":{"type":"LineString","coordinates":[[120.3001028225243,23.38159407544479],[120.2978130578347,23.37924539888431],[120.2910351813441,23.37293715037167],[120.2866381091052,23.36852576574847]]}},{"type":"Feature","properties":{"name":"頂潭堤防","levee_type":"","river":"八掌溪","basin":"八掌溪","county":"台南市","side":"","status":"","source":"WRA 中央管河川河堤"},"geometry":{"type":"LineString","coordinates":[[120.3203683378878,23.38731025241127],[120.3190120693324,23.38532095818518],[120.3167684185157,23.38285486844624],[120.3148601626579,23.3809326549205],[120.3129519664116,23.38058047420962],[120.3091353693174,23.38046307984445]]}},{"type":"Feature","properties":{"name":"三角子堤防","levee_type":"","river":"八掌溪","basin":"八掌溪","county":"嘉義縣","side":"","status":"","source":"WRA 中央管河川河堤"},"geometry":{"type":"LineString","coordinates":[[120.3545750499103,23.40368357988634],[120.3427590474586,23.40137693079806],[120.3381613926085,23.39926273546482]]}},{"type":"Feature","properties":{"name":"南靖堤防","levee_type":"","river":"八掌溪","basin":"八掌溪","county":"嘉義縣","side":"","status":"","source":"WRA 中央管河川河堤"},"geometry":{"type":"LineString","coordinates":[[120.3864863293688,23.40581088700328],[120.3840709128056,23.405218466066],[120.3788536085618,23.40447491289969],[120.3553588545266,23.40368352319382]]}},{"type":"Feature","properties":{"name":"菁寮堤防","levee_type":"","river":"八掌溪","basin":"八掌溪","county":"台南市","side":"","status":"","source":"WRA 中央管河川河堤"},"geometry":{"type":"LineString","coordinates":[[120.3866404823784,23.40287410998025],[120.3785141579212,23.40059921003024],[120.3557637349531,23.39717319285964]]}},{"type":"Feature","properties":{"name":"義興堤防","levee_type":"","river":"八掌溪","basin":"八掌溪","county":"嘉義縣","side":"","status":"","source":"WRA 中央管河川河堤"},"geometry":{"type":"LineString","coordinates":[[120.4411804562429,23.42894894640418],[120.4395933144963,23.42954964887121],[120.4381308506877,23.43033806684994],[120.4371463100708,23.43100722859066],[120.4353644040347,23.43124211972491],[120.4334553708042,23.43077230064543],[120.4317121046992,23.42897472740631],[120.4291669377498,23.42721320955917],[120.4219126976533,23.42330100904867],[120.4166072218678,23.42036479460192],[120.4113634843877,23.41874981922277],[120.4076578337515,23.41706126123254]]}},{"type":"Feature","properties":{"name":"十股堤防","levee_type":"","river":"三疊溪","basin":"三疊溪","county":"雲林縣","side":"","status":"","source":"WRA 中央管河川河堤"},"geometry":{"type":"LineString","coordinates":[[120.5113715049338,23.6162814695644],[120.5102269210987,23.61833262711366],[120.5073949868223,23.62199324534813],[120.5054872257781,23.62463046160069],[120.5048512777456,23.62586111065641]]}},{"type":"Feature","properties":{"name":"大林堤防","levee_type":"","river":"三疊溪","basin":"三疊溪","county":"雲林縣","side":"","status":"","source":"WRA 中央管河川河堤"},"geometry":{"type":"LineString","coordinates":[[120.5367448774519,23.59448336154881],[120.5329933399018,23.59559684832729],[120.5323575000848,23.59624143466368],[120.5321032026125,23.59758927844743],[120.5313402410034,23.59852688610954],[120.5294326857455,23.59908296941064],[120.5280974520129,23.60054801786261]]}},{"type":"Feature","properties":{"name":"崁腳一號護岸","levee_type":"","river":"三疊溪","basin":"三疊溪","county":"雲林縣","side":"","status":"","source":"WRA 中央管河川河堤"},"geometry":{"type":"LineString","coordinates":[[120.5369357514565,23.59553813308036],[120.5355367740318,23.59612416117527],[120.5348374504782,23.59659302762828],[120.5336928687146,23.59688604041879],[120.5335021063726,23.59700325473147],[120.5333750014466,23.59788227001563],[120.5328662865563,23.59893713865705],[120.5314674638674,23.59964030090865]]}},{"type":"Feature","properties":{"name":"崎頂堤防","levee_type":"","river":"三疊溪","basin":"三疊溪","county":"雲林縣","side":"","status":"","source":"WRA 中央管河川河堤"},"geometry":{"type":"LineString","coordinates":[[120.5483483443434,23.59228575436966],[120.5436756098081,23.59287177962263],[120.5401148892495,23.59351642829122],[120.5371264007184,23.59430759293571]]}},{"type":"Feature","properties":{"name":"崁腳二號護岸","levee_type":"","river":"三疊溪","basin":"三疊溪","county":"雲林縣","side":"","status":"","source":"WRA 中央管河川河堤"},"geometry":{"type":"LineString","coordinates":[[120.5498434711827,23.59442412038365],[120.548380973015,23.59380937556479],[120.5466006042797,23.59392659260837],[120.5441843835873,23.59421963808156],[120.5402420536513,23.59498147615348],[120.5373807620501,23.59559674954812]]}},{"type":"Feature","properties":{"name":"崁腳三號堤防","levee_type":"","river":"三疊溪","basin":"三疊溪","county":"雲林縣","side":"","status":"","source":"WRA 中央管河川河堤"},"geometry":{"type":"LineString","coordinates":[[120.5532134966716,23.5940139814442],[120.552005440141,23.59442420810269],[120.5502250014134,23.5944827409532]]}},{"type":"Feature","properties":{"name":"華興一號堤防","levee_type":"","river":"三疊溪","basin":"三疊溪","county":"雲林縣","side":"","status":"","source":"WRA 中央管河川河堤"},"geometry":{"type":"LineString","coordinates":[[120.5502249673784,23.59336930916538],[120.5495254576448,23.59295912123831],[120.5487297736486,23.59246160444766]]}},{"type":"Feature","properties":{"name":"華興二號堤防","levee_type":"","river":"三疊溪","basin":"三疊溪","county":"雲林縣","side":"","status":"","source":"WRA 中央管河川河堤"},"geometry":{"type":"LineString","coordinates":[[120.5534347722123,23.59254903589252],[120.5518146404305,23.59325217620419],[120.5511151507426,23.59348656394954],[120.5504792926382,23.59336933994496]]}},{"type":"Feature","properties":{"name":"廣永堤防","levee_type":"","river":"三疊溪","basin":"三疊溪","county":"雲林縣","side":"","status":"","source":"WRA 中央管河川河堤"},"geometry":{"type":"LineString","coordinates":[[120.5587754463543,23.58844680346083],[120.5569952193391,23.58950164500308],[120.5564230734856,23.59102530663569],[120.5561051442358,23.59208022616021],[120.5555329704741,23.5923145429851],[120.5545792008989,23.59219737070908],[120.553752637547,23.59243174609971]]}},{"type":"Feature","properties":{"name":"梅北堤防","levee_type":"","river":"三疊溪","basin":"三疊溪","county":"雲林縣","side":"","status":"","source":"WRA 中央管河川河堤"},"geometry":{"type":"LineString","coordinates":[[120.5644976301137,23.58759588046953],[120.5636075457805,23.58865082387341],[120.5629718242528,23.58888513994291],[120.5623360005208,23.5884749580893],[120.5613822368372,23.5881818901576],[120.5592840595652,23.58829916113706]]}},{"type":"Feature","properties":{"name":"圳北護岸下段","levee_type":"","river":"三疊溪","basin":"三疊溪","county":"雲林縣","side":"","status":"","source":"WRA 中央管河川河堤"},"geometry":{"type":"LineString","coordinates":[[120.5619545262668,23.58941255200816],[120.5608736541726,23.58935394421518],[120.5599199033535,23.5895884006854],[120.5587754806984,23.58985329715119],[120.5577581800372,23.59084956259206]]}},{"type":"Feature","properties":{"name":"圳北護岸上段","levee_type":"","river":"三疊溪","basin":"三疊溪","county":"雲林縣","side":"","status":"","source":"WRA 中央管河川河堤"},"geometry":{"type":"LineString","coordinates":[[120.563734784084,23.58999858937137],[120.5627810245407,23.58999865885562],[120.5622723960209,23.58958840072134]]}},{"type":"Feature","properties":{"name":"麻魚寮護岸","levee_type":"","river":"朴子溪","basin":"朴子溪","county":"嘉義縣","side":"","status":"","source":"WRA 中央管河川河堤"},"geometry":{"type":"LineString","coordinates":[[120.374301061417,23.50696690285068],[120.3712719707321,23.50199445098906],[120.3705450967785,23.50183302435616],[120.369977423986,23.50192976883364],[120.3689802941564,23.50236523402732]]}},{"type":"Feature","properties":{"name":"中洋子護岸","levee_type":"","river":"朴子溪","basin":"朴子溪","county":"嘉義縣","side":"","status":"","source":"WRA 中央管河川河堤"},"geometry":{"type":"LineString","coordinates":[[120.3766434566592,23.5137856399312],[120.375093188228,23.51213588692359],[120.3727508520168,23.50736709584923]]}},{"type":"Feature","properties":{"name":"三間厝護岸","levee_type":"","river":"朴子溪","basin":"朴子溪","county":"嘉義縣","side":"","status":"","source":"WRA 中央管河川河堤"},"geometry":{"type":"LineString","coordinates":[[120.3861063709348,23.50810601679493],[120.3868217948605,23.50986558692788],[120.3876147907162,23.51096533100082],[120.3888073581979,23.5120650757817],[120.389243103537,23.51252277975735],[120.3900851898267,23.51409141972712]]}},{"type":"Feature","properties":{"name":"新部護岸","levee_type":"","river":"朴子溪","basin":"朴子溪","county":"嘉義縣","side":"","status":"","source":"WRA 中央管河川河堤"},"geometry":{"type":"LineString","coordinates":[[120.394387010493,23.50493149001323],[120.3919495404496,23.50414677479692],[120.3892067587124,23.50414683465657],[120.3869411100948,23.50535652110984]]}},{"type":"Feature","properties":{"name":"中山村護岸","levee_type":"","river":"朴子溪","basin":"朴子溪","county":"嘉義縣","side":"","status":"","source":"WRA 中央管河川河堤"},"geometry":{"type":"LineString","coordinates":[[120.4067363525165,23.50763220522799],[120.4073325580569,23.50895199235646],[120.4073325952888,23.51016169473754],[120.4071729989304,23.51126157290944],[120.4063381745308,23.51181151887109],[120.4049070095269,23.51181144412204],[120.4033181612216,23.51147914782969]]}},{"type":"Feature","properties":{"name":"牛斗山護岸","levee_type":"","river":"朴子溪","basin":"朴子溪","county":"嘉義市","side":"","status":"","source":"WRA 中央管河川河堤"},"geometry":{"type":"LineString","coordinates":[[120.4102347756531,23.4991638077463],[120.4083268804902,23.49773402812283],[120.4072537420745,23.49828398136684],[120.4064191305554,23.49960370248165],[120.4055843460518,23.50191336720722]]}},{"type":"Feature","properties":{"name":"福興一號護岸","levee_type":"","river":"朴子溪","basin":"朴子溪","county":"嘉義縣","side":"","status":"","source":"WRA 中央管河川河堤"},"geometry":{"type":"LineString","coordinates":[[120.4311436835627,23.51144509664586],[120.428081985062,23.51100520311112],[120.4255776256657,23.51023548020167],[120.4229541112621,23.50803608070077]]}},{"type":"Feature","properties":{"name":"福興二號堤防","levee_type":"","river":"朴子溪","basin":"朴子溪","county":"嘉義縣","side":"","status":"","source":"WRA 中央管河川河堤"},"geometry":{"type":"LineString","coordinates":[[120.4422168842342,23.51414194525907],[120.4408451680658,23.51277105082713],[120.4393971572616,23.51182216695074],[120.4389400184941,23.51213835627376],[120.4372065361388,23.51328016220409],[120.4347873781731,23.51447459549693],[120.4337673959171,23.51456045394246],[120.4322169906041,23.51423050143512],[120.431501446915,23.51320471858103],[120.4320977688441,23.51159100226083]]}},{"type":"Feature","properties":{"name":"許厝護岸","levee_type":"","river":"朴子溪","basin":"朴子溪","county":"嘉義市","side":"","status":"","source":"WRA 中央管河川河堤"},"geometry":{"type":"LineString","coordinates":[[120.4348790682562,23.51038134045604],[120.434998364039,23.50917157369559],[120.4344021210969,23.50785189514058],[120.4335673277827,23.50730197427427],[120.4309438471767,23.50770583641221]]}},{"type":"Feature","properties":{"name":"民雄堤防","levee_type":"","river":"朴子溪","basin":"朴子溪","county":"嘉義縣","side":"","status":"","source":"WRA 中央管河川河堤"},"geometry":{"type":"LineString","coordinates":[[120.4450967881394,23.5149260740532],[120.4424731442519,23.51437617949544]]}},{"type":"Feature","properties":{"name":"溪底寮堤防","levee_type":"","river":"朴子溪","basin":"朴子溪","county":"嘉義縣","side":"","status":"","source":"WRA 中央管河川河堤"},"geometry":{"type":"LineString","coordinates":[[120.4674702391355,23.5002581611155],[120.4663971148343,23.50003823706636],[120.46496612496,23.50014817126316],[120.4632967874426,23.50113799709811],[120.4625446362941,23.50300759230382],[120.4613522703022,23.50539297307753],[120.459324982031,23.50891220316299]]}},{"type":"Feature","properties":{"name":"溪底寮二號堤防","levee_type":"","river":"朴子溪","basin":"朴子溪","county":"嘉義縣","side":"","status":"","source":"WRA 中央管河川河堤"},"geometry":{"type":"LineString","coordinates":[[120.4728003215614,23.50744033779434],[120.4723232083806,23.50722032422707],[120.4704152878876,23.50564714141913],[120.469819013914,23.50234786219751],[120.4693780553282,23.50080810823793],[120.468066443932,23.50025815979728]]}},{"type":"Feature","properties":{"name":"盧山橋護岸","levee_type":"","river":"朴子溪","basin":"朴子溪","county":"嘉義市","side":"","status":"","source":"WRA 中央管河川河堤"},"geometry":{"type":"LineString","coordinates":[[120.4844869664003,23.50527353928301],[120.4824597096523,23.50417385431163],[120.4807901792657,23.5037011801911],[120.4788821329577,23.50370114093259]]}},{"type":"Feature","properties":{"name":"溪仔尾堤防","levee_type":"","river":"朴子溪","basin":"朴子溪","county":"嘉義縣","side":"","status":"","source":"WRA 中央管河川河堤"},"geometry":{"type":"LineString","coordinates":[[120.488064557113,23.50758297454125],[120.4849639174565,23.50681326517945],[120.4831751621082,23.50604348494789]]}},{"type":"Feature","properties":{"name":"火炭埔護岸","levee_type":"","river":"朴子溪","basin":"朴子溪","county":"嘉義縣","side":"","status":"","source":"WRA 中央管河川河堤"},"geometry":{"type":"LineString","coordinates":[[120.4940271340522,23.50574536771386],[120.4933116001773,23.50629528908203],[120.4922382616076,23.50673521742788],[120.4909265479807,23.50728517152841],[120.4886608155448,23.50758293691343]]}},{"type":"Feature","properties":{"name":"山子門護岸","levee_type":"","river":"朴子溪","basin":"朴子溪","county":"嘉義縣","side":"","status":"","source":"WRA 中央管河川河堤"},"geometry":{"type":"LineString","coordinates":[[120.4997512247741,23.50486533889847],[120.4964121727983,23.50574524477739]]}},{"type":"Feature","properties":{"name":"義仁護岸","levee_type":"","river":"朴子溪","basin":"朴子溪","county":"嘉義縣","side":"","status":"","source":"WRA 中央管河川河堤"},"geometry":{"type":"LineString","coordinates":[[120.5070589676076,23.49642879694893],[120.505389647275,23.49851827480022],[120.5018976893988,23.50379725290503]]}},{"type":"Feature","properties":{"name":"灣橋護岸","levee_type":"","river":"朴子溪","basin":"朴子溪","county":"嘉義縣","side":"","status":"","source":"WRA 中央管河川河堤"},"geometry":{"type":"LineString","coordinates":[[120.5126964106421,23.49140096373319],[120.5099539494493,23.4905999222742],[120.5081655471708,23.49169969159272],[120.5061049778286,23.49422913894205]]}},{"type":"Feature","properties":{"name":"林仔埔護岸","levee_type":"","river":"朴子溪","basin":"朴子溪","county":"嘉義縣","side":"","status":"","source":"WRA 中央管河川河堤"},"geometry":{"type":"LineString","coordinates":[[120.5179101689382,23.49613008530187],[120.5160023317329,23.4949203310911],[120.5144520716405,23.49382049162904]]}},{"type":"Feature","properties":{"name":"鹿滿堤防","levee_type":"","river":"朴子溪","basin":"朴子溪","county":"嘉義縣","side":"","status":"","source":"WRA 中央管河川河堤"},"geometry":{"type":"LineString","coordinates":[[120.5245885979625,23.50187950655455],[120.5232595751399,23.50030801867318],[120.5217483811192,23.49975803188459]]}},{"type":"Feature","properties":{"name":"和樂一號護岸","levee_type":"","river":"朴子溪","basin":"朴子溪","county":"嘉義縣","side":"","status":"","source":"WRA 中央管河川河堤"},"geometry":{"type":"LineString","coordinates":[[120.5344542418629,23.50960801849448],[120.5338580611462,23.50861816143386],[120.529446642378,23.50693846305373]]}},{"type":"Feature","properties":{"name":"羌仔科一號堤防","levee_type":"","river":"朴子溪","basin":"朴子溪","county":"嘉義縣","side":"","status":"","source":"WRA 中央管河川河堤"},"geometry":{"type":"LineString","coordinates":[[120.5394789782556,23.51506556314982],[120.5359725591,23.51268748870433]]}},{"type":"Feature","properties":{"name":"鹿麻產護岸","levee_type":"","river":"朴子溪","basin":"朴子溪","county":"嘉義縣","side":"","status":"","source":"WRA 中央管河川河堤"},"geometry":{"type":"LineString","coordinates":[[120.5431271523308,23.51590627736297],[120.5420541254173,23.51513632879926],[120.5401460887613,23.51469645539374]]}},{"type":"Feature","properties":{"name":"鹿麻產堤防","levee_type":"","river":"朴子溪","basin":"朴子溪","county":"嘉義縣","side":"","status":"","source":"WRA 中央管河川河堤"},"geometry":{"type":"LineString","coordinates":[[120.5444389204417,23.51744606287493],[120.5438426170757,23.51601630079489],[120.5418156755344,23.51447649491307]]}},{"type":"Feature","properties":{"name":"和樂二號護岸","levee_type":"","river":"朴子溪","basin":"朴子溪","county":"嘉義縣","side":"","status":"","source":"WRA 中央管河川河堤"},"geometry":{"type":"LineString","coordinates":[[120.5376420148687,23.51268748647958],[120.5360042755302,23.51081780194722]]}},{"type":"Feature","properties":{"name":"和樂堤防","levee_type":"","river":"朴子溪","basin":"朴子溪","county":"嘉義縣","side":"","status":"","source":"WRA 中央管河川河堤"},"geometry":{"type":"LineString","coordinates":[[120.5389536904326,23.5135674218213],[120.5371965220415,23.51136767646251]]}},{"type":"Feature","properties":{"name":"鎮安橋護岸","levee_type":"","river":"朴子溪","basin":"朴子溪","county":"嘉義縣","side":"","status":"","source":"WRA 中央管河川河堤"},"geometry":{"type":"LineString","coordinates":[[120.5461129302091,23.51973524950587],[120.5443863083496,23.51762670000355]]}},{"type":"Feature","properties":{"name":"三塊厝堤防","levee_type":"","river":"朴子溪","basin":"朴子溪","county":"嘉義縣","side":"","status":"","source":"WRA 中央管河川河堤"},"geometry":{"type":"LineString","coordinates":[[120.5484321069766,23.52439384474542],[120.5479601042929,23.52415637472663],[120.5468013548973,23.52273177388878],[120.5466725565751,23.52150488880765],[120.5466256789068,23.52108633998273]]}},{"type":"Feature","properties":{"name":"溪角護岸","levee_type":"","river":"朴子溪","basin":"朴子溪","county":"嘉義縣","side":"","status":"","source":"WRA 中央管河川河堤"},"geometry":{"type":"LineString","coordinates":[[120.5511359260867,23.52754877903414],[120.5475739054429,23.52601632886655],[120.546286395188,23.52510620679905]]}},{"type":"Feature","properties":{"name":"覆鼎金護岸","levee_type":"","river":"朴子溪","basin":"朴子溪","county":"嘉義縣","side":"","status":"","source":"WRA 中央管河川河堤"},"geometry":{"type":"LineString","coordinates":[[120.5712631906489,23.52313222955503],[120.5682161939975,23.52350050000376],[120.5643109326372,23.52496483079924],[120.5619934843717,23.52567710534559],[120.5599335172337,23.52603339336475],[120.5583456578116,23.52620319168107],[120.5564573357926,23.52711348099634],[120.5552127877852,23.52790496512149]]}},{"type":"Feature","properties":{"name":"覆鼎金堤防","levee_type":"","river":"朴子溪","basin":"朴子溪","county":"嘉義縣","side":"","status":"","source":"WRA 中央管河川河堤"},"geometry":{"type":"LineString","coordinates":[[120.5652121690322,23.52421287887581],[120.5640963411393,23.52472741649601],[120.5629805321587,23.52520224760731],[120.5607918275489,23.52563756775908]]}},{"type":"Feature","properties":{"name":"龍山堤防","levee_type":"","river":"朴子溪","basin":"朴子溪","county":"嘉義縣","side":"","status":"","source":"WRA 中央管河川河堤"},"geometry":{"type":"LineString","coordinates":[[120.5877271149597,23.51864774890303],[120.585967806384,23.51825198071026],[120.5843572468129,23.51835821736753],[120.5831786679217,23.51916217064933]]}},{"type":"Feature","properties":{"name":"龍山護岸","levee_type":"","river":"朴子溪","basin":"朴子溪","county":"嘉義縣","side":"","status":"","source":"WRA 中央管河川河堤"},"geometry":{"type":"LineString","coordinates":[[120.595236246769,23.51665594670744],[120.5944553643178,23.51757656822715]]}},{"type":"Feature","properties":{"name":"月眉支線防水堤","levee_type":"","river":"朴子溪","basin":"朴子溪","county":"嘉義縣","side":"","status":"","source":"WRA 中央管河川河堤"},"geometry":{"type":"LineString","coordinates":[[120.367353976704,23.51086731109066],[120.3652813663371,23.5134807261767],[120.3638642600676,23.51436783335151],[120.3630595340008,23.51458561260853],[120.3616948471213,23.51458546052372],[120.3604877209465,23.5143594864746]]}},{"type":"Feature","properties":{"name":"麻魚寮護岸","levee_type":"","river":"朴子溪","basin":"朴子溪","county":"嘉義縣","side":"","status":"","source":"WRA 中央管河川河堤"},"geometry":{"type":"LineString","coordinates":[[120.3679659145284,23.50602744468852],[120.3682631977964,23.50380109319121],[120.3687004741765,23.50294611068772]]}},{"type":"Feature","properties":{"name":"羌仔科二號堤防","levee_type":"","river":"朴子溪","basin":"朴子溪","county":"嘉義縣","side":"","status":"","source":"WRA 中央管河川河堤"},"geometry":{"type":"LineString","coordinates":[[120.5426636471333,23.51644443748667],[120.5417598591062,23.51549183871281],[120.5398448623034,23.51513453815662]]}},{"type":"Feature","properties":{"name":"羌仔科二號堤防","levee_type":"","river":"朴子溪","basin":"朴子溪","county":"嘉義縣","side":"","status":"","source":"WRA 中央管河川河堤"},"geometry":{"type":"LineString","coordinates":[[120.5454811414255,23.5243748465449],[120.5450040657097,23.52349509444257],[120.5444077371359,23.52118542404115],[120.5435891009936,23.51999698917885],[120.5430078403646,23.51865577628727],[120.5425991278856,23.51670244681652]]}},{"type":"Feature","properties":{"name":"天長護岸","levee_type":"","river":"八掌溪","basin":"八掌溪","county":"嘉義縣","side":"","status":"","source":"WRA 中央管河川河堤"},"geometry":{"type":"LineString","coordinates":[[120.6015561091771,23.43717506325999],[120.6009160697446,23.43787053072222],[120.6004614324756,23.43850529445175]]}},{"type":"Feature","properties":{"name":"觸口護岸","levee_type":"","river":"八掌溪","basin":"八掌溪","county":"嘉義縣","side":"","status":"","source":"WRA 中央管河川河堤"},"geometry":{"type":"LineString","coordinates":[[120.6048638746182,23.43817930658038],[120.6045467935507,23.43798624092195],[120.6039905702551,23.43789235481508],[120.6030514447078,23.43790907296599],[120.6024293603447,23.43804151038751],[120.601657761986,23.43840586848178],[120.6010237030852,23.43876468344505]]}},{"type":"Feature","properties":{"name":"內甕堤防","levee_type":"","river":"八掌溪","basin":"八掌溪","county":"嘉義縣","side":"","status":"","source":"WRA 中央管河川河堤"},"geometry":{"type":"LineString","coordinates":[[120.5153631136516,23.45289103585379],[120.5129807140983,23.45249659454288],[120.5110259020815,23.45249651421152],[120.5090833540189,23.45276989275742],[120.5082647124493,23.45302913871337]]}},{"type":"Feature","properties":{"name":"彌陀護岸","levee_type":"","river":"八掌溪","basin":"八掌溪","county":"嘉義市","side":"","status":"","source":"WRA 中央管河川河堤"},"geometry":{"type":"LineString","coordinates":[[120.4710717697827,23.46223346778308],[120.4694179753577,23.46228787865615],[120.4686944555234,23.46234240006634]]}},{"type":"Feature","properties":{"name":"吳鳳堤防","levee_type":"","river":"八掌溪","basin":"八掌溪","county":"嘉義市","side":"","status":"","source":"WRA 中央管河川河堤"},"geometry":{"type":"LineString","coordinates":[[120.4504671766656,23.45261563519346],[120.451727474112,23.45649407597003],[120.4570147781026,23.45873927887855],[120.4591556677406,23.46027849245848],[120.4607207986998,23.46131380358294],[120.4623155049438,23.46192000946978]]}},{"type":"Feature","properties":{"name":"湖內堤防","levee_type":"","river":"八掌溪","basin":"八掌溪","county":"嘉義市","side":"","status":"","source":"WRA 中央管河川河堤"},"geometry":{"type":"LineString","coordinates":[[120.4369943716689,23.44164173068283],[120.4391515578941,23.44164184883999],[120.4427739771493,23.44212810249683],[120.4461115896044,23.4438557745133],[120.4480654390695,23.4464847789123],[120.4492898803447,23.4485878169417],[120.4504299093143,23.45226826492222]]}},{"type":"Feature","properties":{"name":"公館堤防","levee_type":"","river":"八掌溪","basin":"八掌溪","county":"嘉義縣","side":"","status":"","source":"WRA 中央管河川河堤"},"geometry":{"type":"LineString","coordinates":[[120.4527866589025,23.44362819624293],[120.4477394202452,23.44103953502907],[120.4433843052635,23.43931163824049],[120.4397592262764,23.43848735568527],[120.4352416532875,23.43826178346135]]}},{"type":"Feature","properties":{"name":"港底寮堤防","levee_type":"","river":"八掌溪","basin":"八掌溪","county":"嘉義縣","side":"","status":"","source":"WRA 中央管河川河堤"},"geometry":{"type":"LineString","coordinates":[[120.4637715472877,23.43487436110691],[120.4630799294092,23.43325951806416],[120.4613302865388,23.43022122078904],[120.4601054819704,23.42853121417208],[120.4582336489694,23.42762977758691]]}},{"type":"Feature","properties":{"name":"柑子園護岸","levee_type":"","river":"八掌溪","basin":"八掌溪","county":"嘉義縣","side":"","status":"","source":"WRA 中央管河川河堤"},"geometry":{"type":"LineString","coordinates":[[120.4667828594596,23.43754065858623],[120.4646667417919,23.43607614115601],[120.463852993617,23.43506211772519]]}},{"type":"Feature","properties":{"name":"成功一號護岸","levee_type":"","river":"八掌溪","basin":"八掌溪","county":"嘉義縣","side":"","status":"","source":"WRA 中央管河川河堤"},"geometry":{"type":"LineString","coordinates":[[120.4735387969921,23.43764937543723],[120.4732540470205,23.43712358017753],[120.4722773107291,23.43656030509837],[120.4709750805344,23.43622646563764],[120.4702017870441,23.43626393615764]]}},{"type":"Feature","properties":{"name":"成功二號護岸","levee_type":"","river":"八掌溪","basin":"八掌溪","county":"嘉義縣","side":"","status":"","source":"WRA 中央管河川河堤"},"geometry":{"type":"LineString","coordinates":[[120.477447728785,23.44104646468775],[120.4770526673573,23.44101730876542],[120.4763100237634,23.44082776220786],[120.4755357871477,23.44055063216413],[120.4746982742039,23.44014238271245],[120.4741927224013,23.43974876697574],[120.4736439574245,23.4389760276833],[120.4731699701299,23.43856782858769],[120.4720640798456,23.43770762329627],[120.4714952845906,23.43741179299472],[120.4708632804329,23.43722221752224],[120.4704524603557,23.43726595617631],[120.4695834064049,23.43758673561983]]}},{"type":"Feature","properties":{"name":"三界埔堤防","levee_type":"","river":"八掌溪","basin":"八掌溪","county":"嘉義縣","side":"","status":"","source":"WRA 中央管河川河堤"},"geometry":{"type":"LineString","coordinates":[[120.4896440453237,23.43494981355352],[120.4890155358044,23.43510603034466],[120.487758478828,23.43535150660829],[120.4867190628961,23.4355523896855],[120.4857036060178,23.43619941653724],[120.4849783391656,23.43675717533667],[120.4842772426406,23.43769408082488],[120.4833342738485,23.43905489088162],[120.4826705852858,23.43925563453517]]}},{"type":"Feature","properties":{"name":"白沙屯堤防","levee_type":"河堤","river":"八掌溪","basin":"八掌溪","county":"嘉義縣","side":"左","status":"","source":"WRA 中央管河川河堤"},"geometry":{"type":"LineString","coordinates":[[120.3360016450798,23.39069162315791],[120.3290630667503,23.38630270269914],[120.3218572899829,23.378391864686],[120.319567461301,23.37651295328318],[120.3126170727108,23.37494336827374],[120.3085871439474,23.37429055839977]]}},{"type":"Feature","properties":{"name":"菁寮堤防","levee_type":"河堤","river":"八掌溪","basin":"八掌溪","county":"嘉義縣","side":"左","status":"","source":"WRA 中央管河川河堤"},"geometry":{"type":"LineString","coordinates":[[120.3550403243086,23.39711762767902],[120.3473396947094,23.39566349852355],[120.3431408611483,23.39433030843775],[120.336304963779,23.39084086389248]]}},{"type":"Feature","properties":{"name":"福興一號堤防","levee_type":"","river":"朴子溪","basin":"朴子溪","county":"嘉義縣","side":"","status":"","source":"WRA 中央管河川河堤"},"geometry":{"type":"LineString","coordinates":[[120.4248052555937,23.50787021492861],[120.4259673223623,23.50876603751403],[120.426748429581,23.50920514125641],[120.427891419257,23.50957389913957],[120.4296057922629,23.50938048558156],[120.4330917262515,23.50880124398256]]}},{"type":"Feature","properties":{"name":"溪北堤防","levee_type":"","river":"朴子溪","basin":"朴子溪","county":"嘉義縣","side":"","status":"","source":"WRA 中央管河川河堤"},"geometry":{"type":"LineString","coordinates":[[120.3434345523621,23.50678355131696],[120.34222848796,23.50715434231361],[120.3345899971765,23.50879022553795],[120.332698044873,23.50876993268548],[120.3307823961085,23.50818097086454],[120.3274005092337,23.50698149020777]]}},{"type":"Feature","properties":{"name":"新埤堤防","levee_type":"","river":"朴子溪","basin":"朴子溪","county":"嘉義縣","side":"","status":"","source":"WRA 中央管河川河堤"},"geometry":{"type":"LineString","coordinates":[[120.2981581695532,23.4823542941389],[120.3002550240052,23.48383817133473],[120.3018629984884,23.48871332322295],[120.30480184776,23.4970504012146]]}},{"type":"Feature","properties":{"name":"軍功堤防","levee_type":"河堤","river":"北港溪","basin":"北港溪","county":"雲林縣","side":"右","status":"","source":"WRA 中央管河川河堤"},"geometry":{"type":"LineString","coordinates":[[120.3331378748487,23.59487831314833],[120.3329537646498,23.59487828547314],[120.332666691961,23.59487332077541],[120.3322930403172,23.5948533433271],[120.3313615395056,23.59480848699451],[120.3309932889256,23.59477847282974],[120.330592554156,23.59472863909198],[120.3302026363974,23.59467371121801],[120.3298992767953,23.59461385361006],[120.3296447821707,23.59456392040906],[120.3294497189908,23.59451403160697],[120.3289353263238,23.59434443372636],[120.3284153482209,23.59415464696399],[120.3281284078361,23.59403987083529],[120.3279387915431,23.59394502693105],[120.3278088789908,23.59388018842095],[120.3276787910201,23.59380027817812],[120.3275867493913,23.59373547618961],[120.3274460254849,23.59360074574108],[120.3272726392643,23.59342598078658],[120.3271481454919,23.59329127873025],[120.3269044792475,23.59301174623071],[120.3261192434398,23.59212335941033],[120.3252230917691,23.59106015261131],[120.3248385871288,23.59067088422167],[120.3246490298792,23.59046622335837],[120.3245894433996,23.59039137199599],[120.3245407566061,23.59031657085254],[120.3245027952989,23.59022665809278],[120.3244703676672,23.59010189543267],[120.3244432595929,23.58996709492314],[120.3244270376718,23.58974255996472],[120.3243891581003,23.58879910890281],[120.3243728458738,23.58771101727088],[120.3243621201174,23.58749142583721],[120.3243567090761,23.58664296051611],[120.3243566619982,23.58644326842284],[120.324351241569,23.58627851848562],[120.3243295479677,23.58607394528933],[120.324313454284,23.58589416884665],[120.324291744984,23.58567461629979],[120.3242701146997,23.58537511595988],[120.3242863023726,23.58518041566724],[120.3243187943912,23.5849807821977],[120.3243458479946,23.58483106917158],[120.324567943106,23.58402740726899],[120.3248278945903,23.58313390854205],[120.3249336581583,23.58288941722402],[120.3249716290442,23.58275455496706],[120.3249986272033,23.58262983792639],[120.3250095143268,23.58254001436266],[120.3250203207223,23.58245018975831],[120.3250257087551,23.58235027920716],[120.325036657974,23.58177634725079],[120.3250636166151,23.58052351545127],[120.3250799919407,23.57996445201643],[120.3250691676346,23.57980477742701],[120.3250636870315,23.57958011255397],[120.3250420386675,23.5794154256536],[120.324998759674,23.57918088874843],[120.3249283776203,23.57889131995995],[120.3248580007252,23.57868675231934],[120.3247171659054,23.57835233071737],[120.3245656140905,23.57803789450191],[120.3243705935091,23.57769348122189],[120.3242027591303,23.57740392017591],[120.3240078854507,23.5770815510883],[120.3238507931413,23.57687189682101],[120.3237262951145,23.57671716416073],[120.323536846955,23.57652748533091],[120.3232498198284,23.57629287462784],[120.3228924213629,23.57601341215643],[120.3225079209778,23.57575886543002],[120.3221938808515,23.57555927754959],[120.3219230947051,23.57541447816006],[120.3215982670992,23.57524479885446],[120.3212571560064,23.57510008472015],[120.3209864062806,23.57499020615044],[120.3207480559609,23.57490546962652],[120.3206127723656,23.57486050235081],[120.3204502852752,23.57482050797245],[120.3203311744398,23.57480056371493],[120.3202337113737,23.57479064400021],[120.3200820736111,23.57478065709615],[120.3199358625727,23.574785538618],[120.3197462966477,23.5747956358815],[120.3195351918952,23.57482052444554],[120.3193402387797,23.57485049402408],[120.3191181727894,23.57489545362141],[120.3189178256932,23.57494033129406],[120.3186904407182,23.57499523698589],[120.3182517586861,23.57512501735317],[120.3175099043215,23.57533462268352],[120.3165893396825,23.57558920460594],[120.3157661949712,23.57581391301307],[120.3148564901279,23.57602848097633],[120.3136218661746,23.57633437739707],[120.3126309070343,23.57659887647924],[120.3118890256052,23.57678366552392],[120.3112717784322,23.57693830099691],[120.3108276577107,23.57703814296494],[120.3105623203782,23.57708813700409],[120.3103890758324,23.57710809853278],[120.3102265645188,23.57712305522335],[120.3100046186181,23.57712804077075],[120.3098313381306,23.57711299069216],[120.3096850982384,23.57709305602244],[120.3094847426253,23.57705311252697],[120.309268228092,23.57700330592643],[120.3089433211544,23.57690842867845],[120.3085208943771,23.57674867753722],[120.3081337551081,23.57659389305718],[120.3078737554739,23.57649398727967],[120.3075814427893,23.57637922686959],[120.3072403265437,23.57622954723485],[120.3069099660735,23.57609471451394],[120.3064226247138,23.57586004089975],[120.3060165198683,23.57564040143147],[120.3059136818234,23.57558547457439],[120.3058595491811,23.57555057679503],[120.305816230162,23.57551067509477],[120.305761985886,23.57544572735851],[120.3055887652857,23.57518613991596],[120.3052747303013,23.57469697995697],[120.3052043797208,23.57459717362739],[120.3050690191036,23.57440746550329],[120.3048957104001,23.57414291312729],[120.3047982634721,23.57399818036608],[120.3047278742319,23.57386345200588],[120.3047212638671,23.57373363385598],[120.3046563292471,23.57355396428475],[120.3046184215231,23.57343419392185],[120.3046263634266,23.57272275994023],[120.3047441160455,23.57224507911252],[120.3050032436572,23.57172392696125],[120.3059221191937,23.57120280068224],[120.3060870262,23.57100741763187],[120.3061879792562,23.57019946155184],[120.306260924283,23.56981251028719],[120.3063156824672,23.56940033112941],[120.3063339592714,23.56913131127262],[120.3063612995159,23.56894623009171],[120.3064160211622,23.5687442669124],[120.3064707849905,23.56859292629492]]}},{"type":"Feature","properties":{"name":"北港二號堤防","levee_type":"","river":"北港溪","basin":"北港溪","county":"雲林縣","side":"","status":"","source":"WRA 中央管河川河堤"},"geometry":{"type":"LineString","coordinates":[[120.3051447113067,23.56390609741803],[120.3031422732214,23.56423104754618],[120.3019172922022,23.56438301068332]]}}]}